post_code,city,province
1000,Brussel,Brussels Hoofdstedelijk Gewest
1000,Bruxelles,Brussels Hoofdstedelijk Gewest
1030,Schaarbeek,Brussels Hoofdstedelijk Gewest
1030,Schaerbeek,Brussels Hoofdstedelijk Gewest
1040,Etterbeek,Brussels Hoofdstedelijk Gewest
1050,Elsene,Brussels Hoofdstedelijk Gewest
1050,Ixelles,Brussels Hoofdstedelijk Gewest
1060,Saint-Gilles,Brussels Hoofdstedelijk Gewest
1060,Sint-Gillis,Brussels Hoofdstedelijk Gewest
1070,Anderlecht,Brussels Hoofdstedelijk Gewest
1080,Molenbeek-Saint-Jean,Brussels Hoofdstedelijk Gewest
1080,Sint-Jans-Molenbeek,Brussels Hoofdstedelijk Gewest
1081,Koekelberg,Brussels Hoofdstedelijk Gewest
1082,Berchem-Sainte-Agathe,Brussels Hoofdstedelijk Gewest
1082,Sint-Agatha-Berchem,Brussels Hoofdstedelijk Gewest
1083,Ganshoren,Brussels Hoofdstedelijk Gewest
1090,Jette,Brussels Hoofdstedelijk Gewest
1140,Evere,Brussels Hoofdstedelijk Gewest
1150,Sint-Pieters-Woluwe,Brussels Hoofdstedelijk Gewest
1150,Woluwe-Saint-Pierre,Brussels Hoofdstedelijk Gewest
1160,Auderghem,Brussels Hoofdstedelijk Gewest
1160,Oudergem,Brussels Hoofdstedelijk Gewest
1170,Watermaal-Bosvoorde,Brussels Hoofdstedelijk Gewest
1170,Watermael-Boitsfort,Brussels Hoofdstedelijk Gewest
1180,Uccle,Brussels Hoofdstedelijk Gewest
1180,Ukkel,Brussels Hoofdstedelijk Gewest
1190,Forest,Brussels Hoofdstedelijk Gewest
1190,Vorst,Brussels Hoofdstedelijk Gewest
1200,Sint-Lambrechts-Woluwe,Brussels Hoofdstedelijk Gewest
1200,Woluwe-Saint-Lambert,Brussels Hoofdstedelijk Gewest
1210,Saint-Josse-ten-Noode,Brussels Hoofdstedelijk Gewest
1210,Sint-Joost-ten-Node,Brussels Hoofdstedelijk Gewest
1300,Wavre,Brabant wallon
1300,Waver,Brabant wallon
1310,La Hulpe,Brabant wallon
1310,Terhulpen,Brabant wallon
1315,Incourt,Brabant wallon
1320,Beauvechain,Brabant wallon
1320,Bevekom,Brabant wallon
1325,Chaumont-Gistoux,Brabant wallon
1330,Rixensart,Brabant wallon
1340,Ottignies-Louvain-la-Neuve,Brabant wallon
1350,Orp-Jauche,Brabant wallon
1357,Hélécine,Brabant wallon
1360,Perwez,Brabant wallon
1360,Perwijs,Brabant wallon
1367,Ramillies,Brabant wallon
1370,Jodoigne,Brabant wallon
1370,Geldenaken,Brabant wallon
1380,Lasne,Brabant wallon
1390,Grez-Doiceau,Brabant wallon
1390,Graven,Brabant wallon
1400,Nivelles,Brabant wallon
1400,Nijvel,Brabant wallon
1410,Waterloo,Brabant wallon
1420,Braine-l'Alleud,Brabant wallon
1420,Eigenbrakel,Brabant wallon
1430,Rebecq,Brabant wallon
1435,Mont-Saint-Guibert,Brabant wallon
1440,Braine-le-Château,Brabant wallon
1440,Kasteelbrakel,Brabant wallon
1450,Chastre,Brabant wallon
1457,Walhain,Brabant wallon
1460,Ittre,Brabant wallon
1460,Itter,Brabant wallon
1470,Genappe,Brabant wallon
1470,Genepiën,Brabant wallon
1480,Tubize,Brabant wallon
1480,Tubeke,Brabant wallon
1490,Court-Saint-Étienne,Brabant wallon
1495,Villers-la-Ville,Brabant wallon
1500,Halle,Vlaams-Brabant
1500,Hal,Vlaams-Brabant
1540,Herne,Vlaams-Brabant
1547,Bever,Vlaams-Brabant
1547,Biévène,Vlaams-Brabant
1560,Hoeilaart,Vlaams-Brabant
1570,Galmaarden,Vlaams-Brabant
1570,Gammerages,Vlaams-Brabant
1600,Sint-Pieters-Leeuw,Vlaams-Brabant
1620,Drogenbos,Vlaams-Brabant
1630,Linkebeek,Vlaams-Brabant
1640,Sint-Genesius-Rode,Vlaams-Brabant
1640,Rhode-Saint-Genèse,Vlaams-Brabant
1650,Beersel,Vlaams-Brabant
1670,Pepingen,Vlaams-Brabant
1700,Dilbeek,Vlaams-Brabant
1730,Asse,Vlaams-Brabant
1740,Ternat,Vlaams-Brabant
1745,Opwijk,Vlaams-Brabant
1750,Lennik,Vlaams-Brabant
1755,Gooik,Vlaams-Brabant
1760,Roosdaal,Vlaams-Brabant
1770,Liedekerke,Vlaams-Brabant
1780,Wemmel,Vlaams-Brabant
1785,Merchtem,Vlaams-Brabant
1790,Affligem,Vlaams-Brabant
1800,Vilvoorde,Vlaams-Brabant
1800,Vilvorde,Vlaams-Brabant
1820,Steenokkerzeel,Vlaams-Brabant
1830,Machelen,Vlaams-Brabant
1840,Londerzeel,Vlaams-Brabant
1850,Grimbergen,Vlaams-Brabant
1860,Meise,Vlaams-Brabant
1880,Kapelle-op-den-Bos,Vlaams-Brabant
1910,Kampenhout,Vlaams-Brabant
1930,Zaventem,Vlaams-Brabant
1950,Kraainem,Vlaams-Brabant
1970,Wezembeek-Oppem,Vlaams-Brabant
1980,Zemst,Vlaams-Brabant
2000,Antwerpen,Antwerpen
2000,Anvers,Antwerpen
2018,Antwerpen,Antwerpen
2018,Anvers,Antwerpen
2020,Antwerpen,Antwerpen
2020,Anvers,Antwerpen
2030,Antwerpen,Antwerpen
2030,Anvers,Antwerpen
2040,Antwerpen,Antwerpen
2040,Anvers,Antwerpen
2050,Antwerpen,Antwerpen
2050,Anvers,Antwerpen
2060,Antwerpen,Antwerpen
2060,Anvers,Antwerpen
2070,Zwijndrecht,Antwerpen
2100,Antwerpen,Antwerpen
2100,Anvers,Antwerpen
2110,Wijnegem,Antwerpen
2140,Antwerpen,Antwerpen
2140,Anvers,Antwerpen
2150,Borsbeek,Antwerpen
2160,Wommelgem,Antwerpen
2170,Antwerpen,Antwerpen
2170,Anvers,Antwerpen
2180,Antwerpen,Antwerpen
2180,Anvers,Antwerpen
2200,Herentals,Antwerpen
2220,Heist-op-den-Berg,Antwerpen
2230,Herselt,Antwerpen
2235,Hulshout,Antwerpen
2240,Zandhoven,Antwerpen
2250,Olen,Antwerpen
2260,Westerlo,Antwerpen
2270,Herenthout,Antwerpen
2275,Lille,Antwerpen
2280,Grobbendonk,Antwerpen
2290,Vorselaar,Antwerpen
2300,Turnhout,Antwerpen
2310,Rijkevorsel,Antwerpen
2320,Hoogstraten,Antwerpen
2330,Merksplas,Antwerpen
2340,Beerse,Antwerpen
2350,Vosselaar,Antwerpen
2360,Oud-Turnhout,Antwerpen
2370,Arendonk,Antwerpen
2380,Ravels,Antwerpen
2387,Baarle-Hertog,Antwerpen
2387,Baerle-Duc,Antwerpen
2390,Malle,Antwerpen
2400,Mol,Antwerpen
2430,Laakdal,Antwerpen
2440,Geel,Antwerpen
2450,Meerhout,Antwerpen
2460,Kasterlee,Antwerpen
2470,Retie,Antwerpen
2480,Dessel,Antwerpen
2490,Balen,Antwerpen
2500,Lier,Antwerpen
2500,Lierre,Antwerpen
2520,Ranst,Antwerpen
2530,Boechout,Antwerpen
2540,Hove,Antwerpen
2547,Lint,Antwerpen
2550,Kontich,Antwerpen
2560,Nijlen,Antwerpen
2570,Duffel,Antwerpen
2580,Putte,Antwerpen
2590,Berlaar,Antwerpen
2600,Antwerpen,Antwerpen
2600,Anvers,Antwerpen
2610,Antwerpen,Antwerpen
2610,Anvers,Antwerpen
2620,Hemiksem,Antwerpen
2627,Schelle,Antwerpen
2630,Aartselaar,Antwerpen
2640,Mortsel,Antwerpen
2650,Edegem,Antwerpen
2660,Antwerpen,Antwerpen
2660,Anvers,Antwerpen
2800,Mechelen,Antwerpen
2800,Malines,Antwerpen
2820,Bonheiden,Antwerpen
2830,Willebroek,Antwerpen
2840,Rumst,Antwerpen
2845,Niel,Antwerpen
2850,Boom,Antwerpen
2860,Sint-Katelijne-Waver,Antwerpen
2870,Puurs-Sint-Amands,Antwerpen
2880,Bornem,Antwerpen
2900,Schoten,Antwerpen
2910,Essen,Antwerpen
2920,Kalmthout,Antwerpen
2930,Brasschaat,Antwerpen
2940,Stabroek,Antwerpen
2950,Kapellen,Antwerpen
2960,Brecht,Antwerpen
2970,Schilde,Antwerpen
2980,Zoersel,Antwerpen
2990,Wuustwezel,Antwerpen
3000,Leuven,Vlaams-Brabant
3000,Louvain,Vlaams-Brabant
3020,Herent,Vlaams-Brabant
3040,Huldenberg,Vlaams-Brabant
3050,Oud-Heverlee,Vlaams-Brabant
3060,Bertem,Vlaams-Brabant
3070,Kortenberg,Vlaams-Brabant
3080,Tervuren,Vlaams-Brabant
3090,Overijse,Vlaams-Brabant
3110,Rotselaar,Vlaams-Brabant
3120,Tremelo,Vlaams-Brabant
3130,Begijnendijk,Vlaams-Brabant
3140,Keerbergen,Vlaams-Brabant
3150,Haacht,Vlaams-Brabant
3190,Boortmeerbeek,Vlaams-Brabant
3200,Aarschot,Vlaams-Brabant
3210,Lubbeek,Vlaams-Brabant
3220,Holsbeek,Vlaams-Brabant
3270,Scherpenheuvel-Zichem,Vlaams-Brabant
3270,Montaigu-Zichem,Vlaams-Brabant
3290,Diest,Vlaams-Brabant
3300,Tienen,Vlaams-Brabant
3300,Tirlemont,Vlaams-Brabant
3320,Hoegaarden,Vlaams-Brabant
3350,Linter,Vlaams-Brabant
3360,Bierbeek,Vlaams-Brabant
3370,Boutersem,Vlaams-Brabant
3380,Glabbeek,Vlaams-Brabant
3390,Tielt-Winge,Vlaams-Brabant
3400,Landen,Vlaams-Brabant
3440,Zoutleeuw,Vlaams-Brabant
3440,Léau,Vlaams-Brabant
3450,Geetbets,Vlaams-Brabant
3460,Bekkevoort,Vlaams-Brabant
3470,Kortenaken,Vlaams-Brabant
3500,Hasselt,Limburg
3520,Zonhoven,Limburg
3530,Houthalen-Helchteren,Limburg
3540,Herk-de-Stad,Limburg
3540,Herck-la-Ville,Limburg
3545,Halen,Limburg
3550,Heusden-Zolder,Limburg
3560,Lummen,Limburg
3570,Alken,Limburg
3580,Beringen,Limburg
3590,Diepenbeek,Limburg
3600,Genk,Limburg
3620,Lanaken,Limburg
3630,Maasmechelen,Limburg
3640,Kinrooi,Limburg
3650,Dilsen-Stokkem,Limburg
3660,Oudsbergen,Limburg
3665,As,Limburg
3680,Maaseik,Limburg
3690,Zutendaal,Limburg
3700,Tongeren,Limburg
3700,Tongres,Limburg
3717,Herstappe,Limburg
3720,Kortessem,Limburg
3730,Hoeselt,Limburg
3740,Bilzen,Limburg
3770,Riemst,Limburg
3790,Voeren,Limburg
3790,Fourons,Limburg
3800,Sint-Truiden,Limburg
3800,Saint-Trond,Limburg
3830,Wellen,Limburg
3840,Borgloon,Limburg
3840,Looz,Limburg
3850,Nieuwerkerken,Limburg
3870,Heers,Limburg
3890,Gingelom,Limburg
3900,Pelt,Limburg
3920,Lommel,Limburg
3930,Hamont-Achel,Limburg
3940,Hechtel-Eksel,Limburg
3945,Ham,Limburg
3950,Bocholt,Limburg
3960,Bree,Limburg
3970,Leopoldsburg,Limburg
3970,Bourg-Léopold,Limburg
3980,Tessenderlo,Limburg
3990,Peer,Limburg
4000,Liège,Liège
4000,Luik,Liège
4040,Herstal,Liège
4050,Chaudfontaine,Liège
4100,Seraing,Liège
4120,Neupré,Liège
4130,Esneux,Liège
4140,Sprimont,Liège
4160,Anthisnes,Liège
4170,Comblain-au-Pont,Liège
4180,Hamoir,Liège
4190,Ferrières,Liège
4210,Burdinne,Liège
4217,Héron,Liège
4219,Wasseiges,Liège
4250,Geer,Liège
4257,Berloz,Liège
4260,Braives,Liège
4280,Hannut,Liège
4280,Hannuit,Liège
4287,Lincent,Liège
4287,Lijsem,Liège
4300,Waremme,Liège
4300,Borgworm,Liège
4317,Faimes,Liège
4340,Awans,Liège
4347,Fexhe-le-Haut-Clocher,Liège
4350,Remicourt,Liège
4357,Donceel,Liège
4360,Oreye,Liège
4360,Oerle,Liège
4367,Crisnée,Liège
4400,Flémalle,Liège
4420,Saint-Nicolas,Liège
4420,Sint-Niklaas,Liège
4430,Ans,Liège
4450,Juprelle,Liège
4460,Grâce-Hollogne,Liège
4470,Saint-Georges-sur-Meuse,Liège
4480,Engis,Liège
4500,Huy,Liège
4500,Hoei,Liège
4520,Wanze,Liège
4530,Villers-le-Bouillet,Liège
4537,Verlaine,Liège
4540,Amay,Liège
4550,Nandrin,Liège
4557,Tinlot,Liège
4560,Clavier,Liège
4570,Marchin,Liège
4577,Modave,Liège
4590,Ouffet,Liège
4600,Visé,Liège
4600,Wezet,Liège
4607,Dalhem,Liège
4610,Beyne-Heusay,Liège
4620,Fléron,Liège
4630,Soumagne,Liège
4650,Herve,Liège
4670,Blégny,Liège
4680,Oupeye,Liège
4690,Bassenge,Liège
4690,Bitsingen,Liège
4700,Eupen,Liège
4710,Lontzen,Liège
4720,Kelmis,Liège
4720,La Calamine,Liège
4730,Raeren,Liège
4750,Bütgenbach,Liège
4750,Butgenbach,Liège
4760,Büllingen,Liège
4760,Bullange,Liège
4770,Amel,Liège
4770,Amblève,Liège
4780,Sankt Vith,Liège
4780,Saint-Vith,Liège
4790,Burg-Reuland,Liège
4800,Verviers,Liège
4820,Dison,Liège
4830,Limbourg,Liège
4830,Limburg,Liège
4837,Baelen,Liège
4837,Balen,Liège
4840,Welkenraedt,Liège
4840,Welkenraat,Liège
4845,Jalhay,Liège
4850,Plombières,Liège
4850,Blieberg,Liège
4860,Pepinster,Liège
4870,Trooz,Liège
4877,Olne,Liège
4880,Aubel,Liège
4890,Thimister-Clermont,Liège
4900,Spa,Liège
4910,Theux,Liège
4920,Aywaille,Liège
4950,Waimes,Liège
4950,Weismes,Liège
4960,Malmedy,Liège
4970,Stavelot,Liège
4980,Trois-Ponts,Liège
4987,Stoumont,Liège
4990,Lierneux,Liège
5000,Namur,Namur
5000,Namen,Namur
5030,Gembloux,Namur
5030,Gembloers,Namur
5060,Sambreville,Namur
5070,Fosses-la-Ville,Namur
5080,La Bruyère,Namur
5140,Sombreffe,Namur
5150,Floreffe,Namur
5170,Profondeville,Namur
5190,Jemeppe-sur-Sambre,Namur
5300,Andenne,Namur
5310,Éghezée,Namur
5330,Assesse,Namur
5340,Gesves,Namur
5350,Ohey,Namur
5360,Hamois,Namur
5370,Havelange,Namur
5377,Somme-Leuze,Namur
5380,Fernelmont,Namur
5500,Dinant,Namur
5520,Onhaye,Namur
5530,Yvoir,Namur
5537,Anhée,Namur
5540,Hastière,Namur
5550,Vresse-sur-Semois,Namur
5555,Bièvre,Namur
5560,Houyet,Namur
5570,Beauraing,Namur
5575,Gedinne,Namur
5580,Rochefort,Namur
5590,Ciney,Namur
5600,Philippeville,Namur
5620,Florennes,Namur
5630,Cerfontaine,Namur
5640,Mettet,Namur
5650,Walcourt,Namur
5660,Couvin,Namur
5670,Viroinval,Namur
5680,Doische,Namur
6000,Charleroi,Hainaut
6110,Montigny-le-Tilleul,Hainaut
6120,Ham-sur-Heure-Nalinnes,Hainaut
6140,Fontaine-l'Évêque,Hainaut
6150,Anderlues,Hainaut
6180,Courcelles,Hainaut
6200,Châtelet,Hainaut
6210,Les Bons Villers,Hainaut
6220,Fleurus,Hainaut
6230,Pont-à-Celles,Hainaut
6240,Farciennes,Hainaut
6250,Aiseau-Presles,Hainaut
6280,Gerpinnes,Hainaut
6440,Froidchapelle,Hainaut
6460,Chimay,Hainaut
6470,Sivry-Rance,Hainaut
6500,Beaumont,Hainaut
6530,Thuin,Hainaut
6540,Lobbes,Hainaut
6560,Erquelinnes,Hainaut
6567,Merbes-le-Château,Hainaut
6590,Momignies,Hainaut
6600,Bastogne,Luxembourg
6600,Bastenaken,Luxembourg
6630,Martelange,Luxembourg
6637,Fauvillers,Luxembourg
6640,Vaux-sur-Sûre,Luxembourg
6660,Houffalize,Luxembourg
6670,Gouvy,Luxembourg
6680,Sainte-Ode,Luxembourg
6687,Bertogne,Luxembourg
6690,Vielsalm,Luxembourg
6700,Arlon,Luxembourg
6700,Aarlen,Luxembourg
6717,Attert,Luxembourg
6720,Habay,Luxembourg
6730,Tintigny,Luxembourg
6740,Étalle,Luxembourg
6747,Saint-Léger,Luxembourg
6750,Musson,Luxembourg
6760,Virton,Luxembourg
6767,Rouvroy,Luxembourg
6769,Meix-devant-Virton,Luxembourg
6780,Messancy,Luxembourg
6790,Aubange,Luxembourg
6800,Libramont-Chevigny,Luxembourg
6810,Chiny,Luxembourg
6820,Florenville,Luxembourg
6830,Bouillon,Luxembourg
6840,Neufchâteau,Luxembourg
6850,Paliseul,Luxembourg
6860,Léglise,Luxembourg
6870,Saint-Hubert,Luxembourg
6880,Bertrix,Luxembourg
6887,Herbeumont,Luxembourg
6890,Libin,Luxembourg
6900,Marche-en-Famenne,Luxembourg
6920,Wellin,Luxembourg
6927,Tellin,Luxembourg
6929,Daverdisse,Luxembourg
6940,Durbuy,Luxembourg
6950,Nassogne,Luxembourg
6960,Manhay,Luxembourg
6970,Tenneville,Luxembourg
6980,La Roche-en-Ardenne,Luxembourg
6987,Rendeux,Luxembourg
6990,Hotton,Luxembourg
6997,Érezée,Luxembourg
7000,Mons,Hainaut
7000,Bergen,Hainaut
7040,Quévy,Hainaut
7050,Jurbise,Hainaut
7050,Jurbeke,Hainaut
7060,Soignies,Hainaut
7060,Zinnik,Hainaut
7070,Le Roeulx,Hainaut
7080,Frameries,Hainaut
7090,Braine-le-Comte,Hainaut
7090,'s-Gravenbrakel,Hainaut
7100,La Louvière,Hainaut
7120,Estinnes,Hainaut
7130,Binche,Hainaut
7140,Morlanwelz,Hainaut
7160,Chapelle-lez-Herlaimont,Hainaut
7170,Manage,Hainaut
7180,Seneffe,Hainaut
7190,Écaussinnes,Hainaut
7300,Boussu,Hainaut
7320,Bernissart,Hainaut
7330,Saint-Ghislain,Hainaut
7340,Colfontaine,Hainaut
7350,Hensies,Hainaut
7370,Dour,Hainaut
7380,Quiévrain,Hainaut
7387,Honnelles,Hainaut
7390,Quaregnon,Hainaut
7500,Tournai,Hainaut
7500,Doornik,Hainaut
7600,Péruwelz,Hainaut
7610,Rumes,Hainaut
7620,Brunehaut,Hainaut
7640,Antoing,Hainaut
7700,Mouscron,Hainaut
7700,Moeskroen,Hainaut
7730,Estaimpuis,Hainaut
7730,Steenput,Hainaut
7740,Pecq,Hainaut
7750,Mont-de-l'Enclus,Hainaut
7760,Celles,Hainaut
7780,Comines-Warneton,Hainaut
7780,Komen-Waasten,Hainaut
7800,Ath,Hainaut
7800,Aat,Hainaut
7830,Silly,Hainaut
7830,Opzullik,Hainaut
7850,Enghien,Hainaut
7850,Edingen,Hainaut
7860,Lessines,Hainaut
7860,Lessen,Hainaut
7870,Lens,Hainaut
7880,Flobecq,Hainaut
7880,Vloesberg,Hainaut
7890,Ellezelles,Hainaut
7890,Elzele,Hainaut
7900,Leuze-en-Hainaut,Hainaut
7910,Frasnes-lez-Anvaing,Hainaut
7940,Brugelette,Hainaut
7950,Chièvres,Hainaut
7970,Beloeil,Hainaut
8000,Brugge,West-Vlaanderen
8000,Bruges,West-Vlaanderen
8020,Oostkamp,West-Vlaanderen
8210,Zedelgem,West-Vlaanderen
8300,Knokke-Heist,West-Vlaanderen
8340,Damme,West-Vlaanderen
8370,Blankenberge,West-Vlaanderen
8377,Zuienkerke,West-Vlaanderen
8400,Oostende,West-Vlaanderen
8400,Ostende,West-Vlaanderen
8420,De Haan,West-Vlaanderen
8430,Middelkerke,West-Vlaanderen
8450,Bredene,West-Vlaanderen
8460,Oudenburg,West-Vlaanderen
8470,Gistel,West-Vlaanderen
8480,Ichtegem,West-Vlaanderen
8490,Jabbeke,West-Vlaanderen
8500,Kortrijk,West-Vlaanderen
8500,Courtrai,West-Vlaanderen
8520,Kuurne,West-Vlaanderen
8530,Harelbeke,West-Vlaanderen
8540,Deerlijk,West-Vlaanderen
8550,Zwevegem,West-Vlaanderen
8560,Wevelgem,West-Vlaanderen
8570,Anzegem,West-Vlaanderen
8580,Avelgem,West-Vlaanderen
8587,Spiere-Helkijn,West-Vlaanderen
8587,Espierres-Helchin,West-Vlaanderen
8600,Diksmuide,West-Vlaanderen
8600,Dixmude,West-Vlaanderen
8610,Kortemark,West-Vlaanderen
8620,Nieuwpoort,West-Vlaanderen
8620,Nieuport,West-Vlaanderen
8630,Veurne,West-Vlaanderen
8630,Furnes,West-Vlaanderen
8640,Vleteren,West-Vlaanderen
8647,Lo-Reninge,West-Vlaanderen
8650,Houthulst,West-Vlaanderen
8660,De Panne,West-Vlaanderen
8660,La Panne,West-Vlaanderen
8670,Koksijde,West-Vlaanderen
8680,Koekelare,West-Vlaanderen
8690,Alveringem,West-Vlaanderen
8700,Tielt,West-Vlaanderen
8710,Wielsbeke,West-Vlaanderen
8720,Dentergem,West-Vlaanderen
8730,Beernem,West-Vlaanderen
8740,Pittem,West-Vlaanderen
8750,Wingene,West-Vlaanderen
8755,Ruiselede,West-Vlaanderen
8760,Meulebeke,West-Vlaanderen
8770,Ingelmunster,West-Vlaanderen
8780,Oostrozebeke,West-Vlaanderen
8790,Waregem,West-Vlaanderen
8800,Roeselare,West-Vlaanderen
8800,Roulers,West-Vlaanderen
8810,Lichtervelde,West-Vlaanderen
8820,Torhout,West-Vlaanderen
8830,Hooglede,West-Vlaanderen
8840,Staden,West-Vlaanderen
8850,Ardooie,West-Vlaanderen
8860,Lendelede,West-Vlaanderen
8870,Izegem,West-Vlaanderen
8880,Ledegem,West-Vlaanderen
8890,Moorslede,West-Vlaanderen
8900,Ieper,West-Vlaanderen
8900,Ypres,West-Vlaanderen
8920,Langemark-Poelkapelle,West-Vlaanderen
8930,Menen,West-Vlaanderen
8930,Menin,West-Vlaanderen
8940,Wervik,West-Vlaanderen
8950,Heuvelland,West-Vlaanderen
8957,Mesen,West-Vlaanderen
8957,Messines,West-Vlaanderen
8970,Poperinge,West-Vlaanderen
8980,Zonnebeke,West-Vlaanderen
9000,Gent,Oost-Vlaanderen
9000,Gand,Oost-Vlaanderen
9060,Zelzate,Oost-Vlaanderen
9070,Destelbergen,Oost-Vlaanderen
9080,Lochristi,Oost-Vlaanderen
9090,Melle,Oost-Vlaanderen
9100,Sint-Niklaas,Oost-Vlaanderen
9100,Saint-Nicolas,Oost-Vlaanderen
9120,Beveren,Oost-Vlaanderen
9140,Temse,Oost-Vlaanderen
9140,Tamise,Oost-Vlaanderen
9150,Kruibeke,Oost-Vlaanderen
9160,Lokeren,Oost-Vlaanderen
9170,Sint-Gillis-Waas,Oost-Vlaanderen
9180,Moerbeke,Oost-Vlaanderen
9185,Wachtebeke,Oost-Vlaanderen
9190,Stekene,Oost-Vlaanderen
9200,Dendermonde,Oost-Vlaanderen
9200,Termonde,Oost-Vlaanderen
9220,Hamme,Oost-Vlaanderen
9230,Wetteren,Oost-Vlaanderen
9240,Zele,Oost-Vlaanderen
9250,Waasmunster,Oost-Vlaanderen
9255,Buggenhout,Oost-Vlaanderen
9260,Wichelen,Oost-Vlaanderen
9270,Laarne,Oost-Vlaanderen
9280,Lebbeke,Oost-Vlaanderen
9290,Berlare,Oost-Vlaanderen
9300,Aalst,Oost-Vlaanderen
9300,Alost,Oost-Vlaanderen
9340,Lede,Oost-Vlaanderen
9400,Ninove,Oost-Vlaanderen
9420,Erpe-Mere,Oost-Vlaanderen
9450,Haaltert,Oost-Vlaanderen
9470,Denderleeuw,Oost-Vlaanderen
9500,Geraardsbergen,Oost-Vlaanderen
9500,Grammont,Oost-Vlaanderen
9520,Sint-Lievens-Houtem,Oost-Vlaanderen
9550,Herzele,Oost-Vlaanderen
9570,Lierde,Oost-Vlaanderen
9600,Ronse,Oost-Vlaanderen
9600,Renaix,Oost-Vlaanderen
9620,Zottegem,Oost-Vlaanderen
9630,Zwalm,Oost-Vlaanderen
9660,Brakel,Oost-Vlaanderen
9667,Horebeke,Oost-Vlaanderen
9680,Maarkedal,Oost-Vlaanderen
9690,Kluisbergen,Oost-Vlaanderen
9700,Oudenaarde,Oost-Vlaanderen
9700,Audenarde,Oost-Vlaanderen
9750,Kruisem,Oost-Vlaanderen
9790,Wortegem-Petegem,Oost-Vlaanderen
9800,Deinze,Oost-Vlaanderen
9810,Nazareth,Oost-Vlaanderen
9820,Merelbeke,Oost-Vlaanderen
9830,Sint-Martens-Latem,Oost-Vlaanderen
9840,De Pinte,Oost-Vlaanderen
9860,Oosterzele,Oost-Vlaanderen
9870,Zulte,Oost-Vlaanderen
9880+9910,Aalter,Oost-Vlaanderen
9890,Gavere,Oost-Vlaanderen
9900,Eeklo,Oost-Vlaanderen
9920,Lievegem,Oost-Vlaanderen
9940,Evergem,Oost-Vlaanderen
9960,Assenede,Oost-Vlaanderen
9970,Kaprijke,Oost-Vlaanderen
9980,Sint-Laureins,Oost-Vlaanderen
9990,Maldegem,Oost-Vlaanderen
1020,Brussel,Brussels Hoofdstedelijk Gewest
1020,Bruxelles,Brussels Hoofdstedelijk Gewest
1120,Brussel,Brussels Hoofdstedelijk Gewest
1130,Brussel,Brussels Hoofdstedelijk Gewest
1300,Wavre,Brabant wallon
1301,Wavre,Brabant wallon
1315,Incourt,Brabant wallon
1315,Incourt,Brabant wallon
1315,Incourt,Brabant wallon
1315,Incourt,Brabant wallon
1320,Beauvechain,Brabant wallon
1320,Beauvechain,Brabant wallon
1320,Beauvechain,Brabant wallon
1320,Beauvechain,Brabant wallon
1325,Chaumont-Gistoux,Brabant wallon
1325,Chaumont-Gistoux,Brabant wallon
1325,Chaumont-Gistoux,Brabant wallon
1325,Chaumont-Gistoux,Brabant wallon
1325,Chaumont-Gistoux,Brabant wallon
1331,Rixensart,Brabant wallon
1332,Rixensart,Brabant wallon
1340,Ottignies-Louvain-la-Neuve,Brabant wallon
1341,Ottignies-Louvain-la-Neuve,Brabant wallon
1342,Ottignies-Louvain-la-Neuve,Brabant wallon
1348,Ottignies-Louvain-la-Neuve,Brabant wallon
1350,Orp-Jauche,Brabant wallon
1350,Orp-Jauche,Brabant wallon
1350,Orp-Jauche,Brabant wallon
1350,Orp-Jauche,Brabant wallon
1350,Orp-Jauche,Brabant wallon
1350,Orp-Jauche,Brabant wallon
1350,Orp-Jauche,Brabant wallon
1357,Hélécine,Brabant wallon
1357,Hélécine,Brabant wallon
1357,Hélécine,Brabant wallon
1360,Perwez,Brabant wallon
1360,Perwez,Brabant wallon
1360,Perwez,Brabant wallon
1360,Perwez,Brabant wallon
1367,Ramillies,Brabant wallon
1367,Ramillies,Brabant wallon
1367,Ramillies,Brabant wallon
1367,Ramillies,Brabant wallon
1367,Ramillies,Brabant wallon
1367,Ramillies,Brabant wallon
1367,Ramillies,Brabant wallon
1370,Jodoigne,Brabant wallon
1370,Jodoigne,Brabant wallon
1370,Jodoigne,Brabant wallon
1370,Jodoigne,Brabant wallon
1370,Jodoigne,Brabant wallon
1370,Jodoigne,Brabant wallon
1370,Jodoigne,Brabant wallon
1370,Jodoigne,Brabant wallon
1370,Jodoigne,Brabant wallon
1380,Lasne,Brabant wallon
1380,Lasne,Brabant wallon
1380,Lasne,Brabant wallon
1380,Lasne,Brabant wallon
1380,Lasne,Brabant wallon
1390,Grez-Doiceau,Brabant wallon
1390,Grez-Doiceau,Brabant wallon
1390,Grez-Doiceau,Brabant wallon
1390,Grez-Doiceau,Brabant wallon
1400,Nivelles,Brabant wallon
1401,Nivelles,Brabant wallon
1402,Nivelles,Brabant wallon
1404,Nivelles,Brabant wallon
1421,Braine-l'Alleud,Brabant wallon
1428,Braine-l'Alleud,Brabant wallon
1430,Rebecq,Brabant wallon
1430,Rebecq,Brabant wallon
1430,Rebecq,Brabant wallon
1435,Mont-Saint-Guibert,Brabant wallon
1435,Mont-Saint-Guibert,Brabant wallon
1440,Braine-le-Château,Brabant wallon
1450,Chastre,Brabant wallon
1450,Chastre,Brabant wallon
1450,Chastre,Brabant wallon
1450,Chastre,Brabant wallon
1457,Walhain,Brabant wallon
1457,Walhain,Brabant wallon
1457,Walhain,Brabant wallon
1460,Ittre,Brabant wallon
1461,Ittre,Brabant wallon
1470,Genappe,Brabant wallon
1470,Genappe,Brabant wallon
1471,Genappe,Brabant wallon
1472,Genappe,Brabant wallon
1473,Genappe,Brabant wallon
1474,Genappe,Brabant wallon
1476,Genappe,Brabant wallon
1480,Tubize,Brabant wallon
1480,Tubize,Brabant wallon
1480,Tubize,Brabant wallon
1495,Villers-la-Ville,Brabant wallon
1495,Villers-la-Ville,Brabant wallon
1495,Villers-la-Ville,Brabant wallon
1495,Villers-la-Ville,Brabant wallon
1501,Halle,Vlaams-Brabant
1502,Halle,Vlaams-Brabant
1540,Herne,Vlaams-Brabant
1541,Herne,Vlaams-Brabant
1570,Galmaarden,Vlaams-Brabant
1570,Galmaarden,Vlaams-Brabant
1600,Sint-Pieters-Leeuw,Vlaams-Brabant
1600,Sint-Pieters-Leeuw,Vlaams-Brabant
1601,Sint-Pieters-Leeuw,Vlaams-Brabant
1602,Sint-Pieters-Leeuw,Vlaams-Brabant
1651,Beersel,Vlaams-Brabant
1652,Beersel,Vlaams-Brabant
1653,Beersel,Vlaams-Brabant
1654,Beersel,Vlaams-Brabant
1670,Pepingen,Vlaams-Brabant
1670,Pepingen,Vlaams-Brabant
1671,Pepingen,Vlaams-Brabant
1673,Pepingen,Vlaams-Brabant
1674,Pepingen,Vlaams-Brabant
1700,Dilbeek,Vlaams-Brabant
1700,Dilbeek,Vlaams-Brabant
1701,Dilbeek,Vlaams-Brabant
1702,Dilbeek,Vlaams-Brabant
1703,Dilbeek,Vlaams-Brabant
1730,Asse,Vlaams-Brabant
1730,Asse,Vlaams-Brabant
1730,Asse,Vlaams-Brabant
1731,Asse,Vlaams-Brabant
1731,Asse,Vlaams-Brabant
1741,Ternat,Vlaams-Brabant
1742,Ternat,Vlaams-Brabant
1745,Opwijk,Vlaams-Brabant
1750,Lennik,Vlaams-Brabant
1750,Lennik,Vlaams-Brabant
1750,Lennik,Vlaams-Brabant
1755,Gooik,Vlaams-Brabant
1755,Gooik,Vlaams-Brabant
1755,Gooik,Vlaams-Brabant
1760,Roosdaal,Vlaams-Brabant
1760,Roosdaal,Vlaams-Brabant
1760,Roosdaal,Vlaams-Brabant
1761,Roosdaal,Vlaams-Brabant
1785,Merchtem,Vlaams-Brabant
1785,Merchtem,Vlaams-Brabant
1790,Affligem,Vlaams-Brabant
1790,Affligem,Vlaams-Brabant
1790,Affligem,Vlaams-Brabant
1800,Vilvoorde,Vlaams-Brabant
1820,Steenokkerzeel,Vlaams-Brabant
1820,Steenokkerzeel,Vlaams-Brabant
1831,Machelen,Vlaams-Brabant
1840,Londerzeel,Vlaams-Brabant
1840,Londerzeel,Vlaams-Brabant
1851,Grimbergen,Vlaams-Brabant
1852,Grimbergen,Vlaams-Brabant
1853,Grimbergen,Vlaams-Brabant
1861,Meise,Vlaams-Brabant
1880,Kapelle-op-den-Bos,Vlaams-Brabant
1880,Kapelle-op-den-Bos,Vlaams-Brabant
1910,Kampenhout,Vlaams-Brabant
1910,Kampenhout,Vlaams-Brabant
1910,Kampenhout,Vlaams-Brabant
1930,Zaventem,Vlaams-Brabant
1932,Zaventem,Vlaams-Brabant
1933,Zaventem,Vlaams-Brabant
1980,Zemst,Vlaams-Brabant
1981,Zemst,Vlaams-Brabant
1982,Zemst,Vlaams-Brabant
1982,Zemst,Vlaams-Brabant
2040,Antwerpen,Antwerpen
2040,Antwerpen,Antwerpen
2040,Antwerpen,Antwerpen
2070,Zwijndrecht,Antwerpen
2100,Antwerpen,Antwerpen
2140,Antwerpen,Antwerpen
2170,Antwerpen,Antwerpen
2180,Antwerpen,Antwerpen
2200,Herentals,Antwerpen
2200,Herentals,Antwerpen
2220,Heist-op-den-Berg,Antwerpen
2221,Heist-op-den-Berg,Antwerpen
2222,Heist-op-den-Berg,Antwerpen
2222,Heist-op-den-Berg,Antwerpen
2223,Heist-op-den-Berg,Antwerpen
2230,Herselt,Antwerpen
2235,Hulshout,Antwerpen
2235,Hulshout,Antwerpen
2240,Zandhoven,Antwerpen
2240,Zandhoven,Antwerpen
2242,Zandhoven,Antwerpen
2243,Zandhoven,Antwerpen
2260,Westerlo,Antwerpen
2260,Westerlo,Antwerpen
2260,Westerlo,Antwerpen
2275,Lille,Antwerpen
2275,Lille,Antwerpen
2275,Lille,Antwerpen
2288,Grobbendonk,Antwerpen
2321,Hoogstraten,Antwerpen
2322,Hoogstraten,Antwerpen
2323,Hoogstraten,Antwerpen
2328,Hoogstraten,Antwerpen
2340,Beerse,Antwerpen
2381,Ravels,Antwerpen
2382,Ravels,Antwerpen
2390,Malle,Antwerpen
2390,Malle,Antwerpen
2430,Laakdal,Antwerpen
2430,Laakdal,Antwerpen
2431,Laakdal,Antwerpen
2431,Laakdal,Antwerpen
2460,Kasterlee,Antwerpen
2460,Kasterlee,Antwerpen
2491,Balen,Antwerpen
2500,Lier,Antwerpen
2520,Ranst,Antwerpen
2520,Ranst,Antwerpen
2520,Ranst,Antwerpen
2531,Boechout,Antwerpen
2550,Kontich,Antwerpen
2560,Nijlen,Antwerpen
2560,Nijlen,Antwerpen
2580,Putte,Antwerpen
2590,Berlaar,Antwerpen
2600,Antwerpen,Antwerpen
2610,Antwerpen,Antwerpen
2660,Antwerpen,Antwerpen
2800,Mechelen,Antwerpen
2801,Mechelen,Antwerpen
2811,Mechelen,Antwerpen
2811,Mechelen,Antwerpen
2812,Mechelen,Antwerpen
2820,Bonheiden,Antwerpen
2830,Willebroek,Antwerpen
2830,Willebroek,Antwerpen
2830,Willebroek,Antwerpen
2840,Rumst,Antwerpen
2840,Rumst,Antwerpen
2861,Sint-Katelijne-Waver,Antwerpen
2870,Puurs-Sint-Amands,Antwerpen
2870,Puurs-Sint-Amands,Antwerpen
2870,Puurs-Sint-Amands,Antwerpen
2880,Bornem,Antwerpen
2880,Bornem,Antwerpen
2880,Bornem,Antwerpen
2890,Puurs-Sint-Amands,Antwerpen
2890,Puurs-Sint-Amands,Antwerpen
2940,Stabroek,Antwerpen
2960,Brecht,Antwerpen
2960,Brecht,Antwerpen
2970,Schilde,Antwerpen
2980,Zoersel,Antwerpen
2990,Wuustwezel,Antwerpen
3001,Leuven,Vlaams-Brabant
3010,Leuven,Vlaams-Brabant
3012,Leuven,Vlaams-Brabant
3018,Leuven,Vlaams-Brabant
3020,Herent,Vlaams-Brabant
3020,Herent,Vlaams-Brabant
3040,Huldenberg,Vlaams-Brabant
3040,Huldenberg,Vlaams-Brabant
3040,Huldenberg,Vlaams-Brabant
3040,Huldenberg,Vlaams-Brabant
3051,Oud-Heverlee,Vlaams-Brabant
3052,Oud-Heverlee,Vlaams-Brabant
3053,Oud-Heverlee,Vlaams-Brabant
3054,Oud-Heverlee,Vlaams-Brabant
3060,Bertem,Vlaams-Brabant
3061,Bertem,Vlaams-Brabant
3071,Kortenberg,Vlaams-Brabant
3078,Kortenberg,Vlaams-Brabant
3078,Kortenberg,Vlaams-Brabant
3080,Tervuren,Vlaams-Brabant
3080,Tervuren,Vlaams-Brabant
3111,Rotselaar,Vlaams-Brabant
3118,Rotselaar,Vlaams-Brabant
3128,Tremelo,Vlaams-Brabant
3130,Begijnendijk,Vlaams-Brabant
3150,Haacht,Vlaams-Brabant
3150,Haacht,Vlaams-Brabant
3191,Boortmeerbeek,Vlaams-Brabant
3200,Aarschot,Vlaams-Brabant
3201,Aarschot,Vlaams-Brabant
3202,Aarschot,Vlaams-Brabant
3210,Lubbeek,Vlaams-Brabant
3211,Lubbeek,Vlaams-Brabant
3212,Lubbeek,Vlaams-Brabant
3220,Holsbeek,Vlaams-Brabant
3220,Lubbeek,Vlaams-Brabant
3221,Holsbeek,Vlaams-Brabant
3270,Scherpenheuvel-Zichem,Vlaams-Brabant
3271,Scherpenheuvel-Zichem,Vlaams-Brabant
3271,Scherpenheuvel-Zichem,Vlaams-Brabant
3272,Scherpenheuvel-Zichem,Vlaams-Brabant
3272,Scherpenheuvel-Zichem,Vlaams-Brabant
3290,Diest,Vlaams-Brabant
3290,Diest,Vlaams-Brabant
3290,Diest,Vlaams-Brabant
3293,Diest,Vlaams-Brabant
3294,Diest,Vlaams-Brabant
3300,Tienen,Vlaams-Brabant
3300,Tienen,Vlaams-Brabant
3300,Tienen,Vlaams-Brabant
3300,Tienen,Vlaams-Brabant
3300,Tienen,Vlaams-Brabant
3300,Tienen,Vlaams-Brabant
3300,Tienen,Vlaams-Brabant
3300,Tienen,Vlaams-Brabant
3320,Hoegaarden,Vlaams-Brabant
3321,Hoegaarden,Vlaams-Brabant
3350,Linter,Vlaams-Brabant
3350,Linter,Vlaams-Brabant
3350,Linter,Vlaams-Brabant
3350,Linter,Vlaams-Brabant
3350,Linter,Vlaams-Brabant
3350,Linter,Vlaams-Brabant
3350,Linter,Vlaams-Brabant
3360,Bierbeek,Vlaams-Brabant
3360,Bierbeek,Vlaams-Brabant
3360,Bierbeek,Vlaams-Brabant
3370,Boutersem,Vlaams-Brabant
3370,Boutersem,Vlaams-Brabant
3370,Boutersem,Vlaams-Brabant
3370,Boutersem,Vlaams-Brabant
3370,Boutersem,Vlaams-Brabant
3380,Glabbeek,Vlaams-Brabant
3380,Glabbeek,Vlaams-Brabant
3381,Glabbeek,Vlaams-Brabant
3384,Glabbeek,Vlaams-Brabant
3390,Tielt-Winge,Vlaams-Brabant
3390,Tielt-Winge,Vlaams-Brabant
3390,Tielt-Winge,Vlaams-Brabant
3391,Tielt-Winge,Vlaams-Brabant
3400,Landen,Vlaams-Brabant
3400,Landen,Vlaams-Brabant
3400,Landen,Vlaams-Brabant
3400,Landen,Vlaams-Brabant
3400,Landen,Vlaams-Brabant
3400,Landen,Vlaams-Brabant
3400,Landen,Vlaams-Brabant
3401,Landen,Vlaams-Brabant
3401,Landen,Vlaams-Brabant
3401,Landen,Vlaams-Brabant
3401,Landen,Vlaams-Brabant
3404,Landen,Vlaams-Brabant
3404,Landen,Vlaams-Brabant
3440,Zoutleeuw,Vlaams-Brabant
3440,Zoutleeuw,Vlaams-Brabant
3440,Zoutleeuw,Vlaams-Brabant
3440,Zoutleeuw,Vlaams-Brabant
3450,Geetbets,Vlaams-Brabant
3454,Geetbets,Vlaams-Brabant
3460,Bekkevoort,Vlaams-Brabant
3461,Bekkevoort,Vlaams-Brabant
3470,Kortenaken,Vlaams-Brabant
3471,Kortenaken,Vlaams-Brabant
3472,Kortenaken,Vlaams-Brabant
3473,Kortenaken,Vlaams-Brabant
3500,Hasselt,Limburg
3501,Hasselt,Limburg
3510,Hasselt,Limburg
3510,Hasselt,Limburg
3511,Hasselt,Limburg
3511,Hasselt,Limburg
3512,Hasselt,Limburg
3530,Houthalen-Helchteren,Limburg
3530,Houthalen-Helchteren,Limburg
3540,Herk-de-Stad,Limburg
3540,Herk-de-Stad,Limburg
3540,Herk-de-Stad,Limburg
3545,Halen,Limburg
3545,Halen,Limburg
3550,Heusden-Zolder,Limburg
3550,Heusden-Zolder,Limburg
3560,Lummen,Limburg
3560,Lummen,Limburg
3581,Beringen,Limburg
3582,Beringen,Limburg
3583,Beringen,Limburg
3620,Lanaken,Limburg
3620,Lanaken,Limburg
3620,Lanaken,Limburg
3621,Lanaken,Limburg
3630,Maasmechelen,Limburg
3630,Maasmechelen,Limburg
3630,Maasmechelen,Limburg
3630,Maasmechelen,Limburg
3630,Maasmechelen,Limburg
3630,Maasmechelen,Limburg
3631,Maasmechelen,Limburg
3631,Maasmechelen,Limburg
3640,Kinrooi,Limburg
3640,Kinrooi,Limburg
3640,Kinrooi,Limburg
3650,Dilsen-Stokkem,Limburg
3650,Dilsen-Stokkem,Limburg
3650,Dilsen-Stokkem,Limburg
3650,Dilsen-Stokkem,Limburg
3650,Dilsen-Stokkem,Limburg
3668,As,Limburg
3670,Oudsbergen,Limburg
3670,Oudsbergen,Limburg
3670,Oudsbergen,Limburg
3670,Oudsbergen,Limburg
3670,Oudsbergen,Limburg
3680,Maaseik,Limburg
3680,Maaseik,Limburg
3700,Tongeren,Limburg
3700,Tongeren,Limburg
3700,Tongeren,Limburg
3700,Tongeren,Limburg
3700,Tongeren,Limburg
3700,Tongeren,Limburg
3700,Tongeren,Limburg
3700,Tongeren,Limburg
3700,Tongeren,Limburg
3700,Tongeren,Limburg
3700,Tongeren,Limburg
3700,Tongeren,Limburg
3700,Tongeren,Limburg
3700,Tongeren,Limburg
3700,Tongeren,Limburg
3700,Tongeren,Limburg
3700,Tongeren,Limburg
3700,Tongeren,Limburg
3721,Kortessem,Limburg
3722,Kortessem,Limburg
3723,Kortessem,Limburg
3724,Kortessem,Limburg
3730,Hoeselt,Limburg
3730,Hoeselt,Limburg
3730,Hoeselt,Limburg
3732,Hoeselt,Limburg
3740,Bilzen,Limburg
3740,Bilzen,Limburg
3740,Bilzen,Limburg
3740,Bilzen,Limburg
3740,Bilzen,Limburg
3740,Bilzen,Limburg
3740,Bilzen,Limburg
3740,Bilzen,Limburg
3740,Bilzen,Limburg
3740,Bilzen,Limburg
3742,Bilzen,Limburg
3746,Bilzen,Limburg
3770,Riemst,Limburg
3770,Riemst,Limburg
3770,Riemst,Limburg
3770,Riemst,Limburg
3770,Riemst,Limburg
3770,Riemst,Limburg
3770,Riemst,Limburg
3770,Riemst,Limburg
3770,Riemst,Limburg
3790,Voeren,Limburg
3790,Voeren,Limburg
3790,Voeren,Limburg
3790,Voeren,Limburg
3791,Voeren,Limburg
3792,Voeren,Limburg
3792,Voeren,Limburg
3793,Voeren,Limburg
3798,Voeren,Limburg
3798,Voeren,Limburg
3800,Sint-Truiden,Limburg
3800,Sint-Truiden,Limburg
3800,Sint-Truiden,Limburg
3800,Sint-Truiden,Limburg
3800,Sint-Truiden,Limburg
3800,Sint-Truiden,Limburg
3800,Sint-Truiden,Limburg
3800,Sint-Truiden,Limburg
3803,Sint-Truiden,Limburg
3803,Sint-Truiden,Limburg
3803,Sint-Truiden,Limburg
3803,Sint-Truiden,Limburg
3806,Sint-Truiden,Limburg
3830,Wellen,Limburg
3831,Wellen,Limburg
3832,Wellen,Limburg
3840,Borgloon,Limburg
3840,Borgloon,Limburg
3840,Borgloon,Limburg
3840,Borgloon,Limburg
3840,Borgloon,Limburg
3840,Borgloon,Limburg
3840,Borgloon,Limburg
3840,Borgloon,Limburg
3840,Borgloon,Limburg
3840,Borgloon,Limburg
3840,Borgloon,Limburg
3840,Borgloon,Limburg
3850,Nieuwerkerken,Limburg
3850,Nieuwerkerken,Limburg
3850,Nieuwerkerken,Limburg
3870,Heers,Limburg
3870,Heers,Limburg
3870,Heers,Limburg
3870,Heers,Limburg
3870,Heers,Limburg
3870,Heers,Limburg
3870,Heers,Limburg
3870,Heers,Limburg
3870,Heers,Limburg
3870,Heers,Limburg
3870,Heers,Limburg
3890,Gingelom,Limburg
3890,Gingelom,Limburg
3890,Gingelom,Limburg
3890,Gingelom,Limburg
3890,Gingelom,Limburg
3890,Gingelom,Limburg
3891,Gingelom,Limburg
3891,Gingelom,Limburg
3891,Gingelom,Limburg
3891,Gingelom,Limburg
3891,Gingelom,Limburg
3910,Pelt,Limburg
3930,Hamont-Achel,Limburg
3930,Hamont-Achel,Limburg
3940,Hechtel-Eksel,Limburg
3941,Hechtel-Eksel,Limburg
3945,Ham,Limburg
3945,Ham,Limburg
3950,Bocholt,Limburg
3950,Bocholt,Limburg
3960,Bree,Limburg
3960,Bree,Limburg
3960,Bree,Limburg
3960,Bree,Limburg
3971,Leopoldsburg,Limburg
3990,Peer,Limburg
3990,Peer,Limburg
3990,Peer,Limburg
4000,Liège,Liège
4000,Liège,Liège
4020,Liège,Liège
4020,Liège,Liège
4020,Liège,Liège
4030,Liège,Liège
4031,Liège,Liège
4032,Liège,Liège
4041,Herstal,Liège
4041,Herstal,Liège
4042,Herstal,Liège
4051,Chaudfontaine,Liège
4052,Chaudfontaine,Liège
4053,Chaudfontaine,Liège
4100,Seraing,Liège
4101,Seraing,Liège
4102,Seraing,Liège
4120,Neupré,Liège
4120,Neupré,Liège
4121,Neupré,Liège
4122,Neupré,Liège
4130,Esneux,Liège
4140,Sprimont,Liège
4140,Sprimont,Liège
4140,Sprimont,Liège
4141,Sprimont,Liège
4161,Anthisnes,Liège
4162,Anthisnes,Liège
4163,Anthisnes,Liège
4171,Comblain-au-Pont,Liège
4180,Hamoir,Liège
4181,Hamoir,Liège
4190,Ferrières,Liège
4190,Ferrières,Liège
4190,Ferrières,Liège
4190,Ferrières,Liège
4210,Burdinne,Liège
4210,Burdinne,Liège
4210,Burdinne,Liège
4210,Burdinne,Liège
4210,Burdinne,Liège
4217,Héron,Liège
4217,Héron,Liège
4218,Héron,Liège
4219,Wasseiges,Liège
4219,Wasseiges,Liège
4219,Wasseiges,Liège
4250,Geer,Liège
4250,Geer,Liège
4250,Geer,Liège
4252,Geer,Liège
4253,Geer,Liège
4254,Geer,Liège
4257,Berloz,Liège
4257,Berloz,Liège
4260,Braives,Liège
4260,Braives,Liège
4260,Braives,Liège
4260,Braives,Liège
4260,Braives,Liège
4261,Braives,Liège
4263,Braives,Liège
4280,Hannut,Liège
4280,Hannut,Liège
4280,Hannut,Liège
4280,Hannut,Liège
4280,Hannut,Liège
4280,Hannut,Liège
4280,Hannut,Liège
4280,Hannut,Liège
4280,Hannut,Liège
4280,Hannut,Liège
4280,Hannut,Liège
4280,Hannut,Liège
4280,Hannut,Liège
4280,Hannut,Liège
4280,Hannut,Liège
4280,Hannut,Liège
4280,Hannut,Liège
4287,Lincent,Liège
4287,Lincent,Liège
4300,Waremme,Liège
4300,Waremme,Liège
4300,Waremme,Liège
4300,Waremme,Liège
4300,Waremme,Liège
4300,Waremme,Liège
4317,Faimes,Liège
4317,Faimes,Liège
4317,Faimes,Liège
4317,Faimes,Liège
4317,Faimes,Liège
4340,Awans,Liège
4340,Awans,Liège
4340,Awans,Liège
4342,Awans,Liège
4347,Fexhe-le-Haut-Clocher,Liège
4347,Fexhe-le-Haut-Clocher,Liège
4347,Fexhe-le-Haut-Clocher,Liège
4347,Fexhe-le-Haut-Clocher,Liège
4350,Remicourt,Liège
4350,Remicourt,Liège
4350,Remicourt,Liège
4351,Remicourt,Liège
4357,Donceel,Liège
4357,Donceel,Liège
4357,Donceel,Liège
4360,Oreye,Liège
4360,Oreye,Liège
4360,Oreye,Liège
4360,Oreye,Liège
4367,Crisnée,Liège
4367,Crisnée,Liège
4367,Crisnée,Liège
4367,Crisnée,Liège
4400,Flémalle,Liège
4400,Flémalle,Liège
4400,Flémalle,Liège
4400,Flémalle,Liège
4400,Flémalle,Liège
4400,Flémalle,Liège
4400,Flémalle,Liège
4420,Saint-Nicolas,Liège
4420,Saint-Nicolas,Liège
4431,Ans,Liège
4432,Ans,Liège
4432,Ans,Liège
4450,Juprelle,Liège
4450,Juprelle,Liège
4451,Juprelle,Liège
4452,Juprelle,Liège
4452,Juprelle,Liège
4453,Juprelle,Liège
4458,Juprelle,Liège
4460,Grâce-Hollogne,Liège
4460,Grâce-Hollogne,Liège
4460,Grâce-Hollogne,Liège
4460,Grâce-Hollogne,Liège
4460,Grâce-Hollogne,Liège
4480,Engis,Liège
4480,Engis,Liège
4500,Huy,Liège
4500,Huy,Liège
4500,Huy,Liège
4520,Wanze,Liège
4520,Wanze,Liège
4520,Wanze,Liège
4520,Wanze,Liège
4520,Wanze,Liège
4530,Villers-le-Bouillet,Liège
4530,Villers-le-Bouillet,Liège
4530,Villers-le-Bouillet,Liège
4530,Villers-le-Bouillet,Liège
4537,Verlaine,Liège
4537,Verlaine,Liège
4540,Amay,Liège
4540,Amay,Liège
4540,Amay,Liège
4540,Amay,Liège
4550,Nandrin,Liège
4550,Nandrin,Liège
4550,Nandrin,Liège
4557,Tinlot,Liège
4557,Tinlot,Liège
4557,Tinlot,Liège
4557,Tinlot,Liège
4557,Tinlot,Liège
4560,Clavier,Liège
4560,Clavier,Liège
4560,Clavier,Liège
4560,Clavier,Liège
4560,Clavier,Liège
4570,Marchin,Liège
4577,Modave,Liège
4577,Modave,Liège
4577,Modave,Liège
4577,Modave,Liège
4590,Ouffet,Liège
4590,Ouffet,Liège
4600,Visé,Liège
4600,Visé,Liège
4600,Visé,Liège
4601,Visé,Liège
4602,Visé,Liège
4606,Dalhem,Liège
4607,Blégny,Liège
4607,Dalhem,Liège
4607,Dalhem,Liège
4607,Dalhem,Liège
4608,Dalhem,Liège
4608,Dalhem,Liège
4610,Beyne-Heusay,Liège
4610,Beyne-Heusay,Liège
4621,Fléron,Liège
4623,Fléron,Liège
4624,Fléron,Liège
4630,Soumagne,Liège
4630,Soumagne,Liège
4631,Soumagne,Liège
4631,Soumagne,Liège
4632,Soumagne,Liège
4633,Soumagne,Liège
4650,Herve,Liège
4650,Herve,Liège
4650,Herve,Liège
4651,Herve,Liège
4652,Herve,Liège
4653,Herve,Liège
4654,Herve,Liège
4670,Blégny,Liège
4670,Blégny,Liège
4671,Blégny,Liège
4671,Blégny,Liège
4671,Blégny,Liège
4672,Blégny,Liège
4680,Oupeye,Liège
4681,Oupeye,Liège
4682,Oupeye,Liège
4682,Oupeye,Liège
4683,Oupeye,Liège
4684,Oupeye,Liège
4690,Bassenge,Liège
4690,Bassenge,Liège
4690,Bassenge,Liège
4690,Bassenge,Liège
4690,Bassenge,Liège
4701,Eupen,Liège
4711,Lontzen,Liège
4721,Kelmis,Liège
4728,Kelmis,Liège
4730,Raeren,Liège
4731,Raeren,Liège
4750,Bütgenbach,Liège
4760,Büllingen,Liège
4761,Büllingen,Liège
4770,Amel,Liège
4771,Amel,Liège
4780,Sankt Vith,Liège
4782,Sankt Vith,Liège
4783,Sankt Vith,Liège
4784,Sankt Vith,Liège
4790,Burg-Reuland,Liège
4791,Burg-Reuland,Liège
4800,Verviers,Liège
4800,Verviers,Liège
4800,Verviers,Liège
4801,Verviers,Liège
4802,Verviers,Liège
4821,Dison,Liège
4831,Limbourg,Liège
4834,Limbourg,Liège
4837,Baelen,Liège
4841,Welkenraedt,Liège
4845,Jalhay,Liège
4850,Plombières,Liège
4850,Plombières,Liège
4851,Plombières,Liège
4851,Plombières,Liège
4852,Plombières,Liège
4860,Pepinster,Liège
4860,Pepinster,Liège
4861,Pepinster,Liège
4870,Trooz,Liège
4870,Trooz,Liège
4870,Trooz,Liège
4890,Thimister-Clermont,Liège
4890,Thimister-Clermont,Liège
4910,Theux,Liège
4910,Theux,Liège
4920,Aywaille,Liège
4920,Aywaille,Liège
4920,Aywaille,Liège
4950,Waimes,Liège
4950,Waimes,Liège
4960,Malmedy,Liège
4960,Malmedy,Liège
4970,Stavelot,Liège
4980,Trois-Ponts,Liège
4980,Trois-Ponts,Liège
4983,Trois-Ponts,Liège
4987,Stoumont,Liège
4987,Stoumont,Liège
4987,Stoumont,Liège
4987,Stoumont,Liège
4990,Lierneux,Liège
4990,Lierneux,Liège
5000,Namur,Namur
5001,Namur,Namur
5002,Namur,Namur
5003,Namur,Namur
5004,Namur,Namur
5020,Namur,Namur
5020,Namur,Namur
5020,Namur,Namur
5020,Namur,Namur
5020,Namur,Namur
5020,Namur,Namur
5020,Namur,Namur
5021,Namur,Namur
5022,Namur,Namur
5024,Namur,Namur
5024,Namur,Namur
5030,Gembloux,Namur
5030,Gembloux,Namur
5030,Gembloux,Namur
5030,Gembloux,Namur
5030,Gembloux,Namur
5031,Gembloux,Namur
5032,Gembloux,Namur
5032,Gembloux,Namur
5032,Gembloux,Namur
5032,Gembloux,Namur
5032,Gembloux,Namur
5060,Sambreville,Namur
5060,Sambreville,Namur
5060,Sambreville,Namur
5060,Sambreville,Namur
5060,Sambreville,Namur
5060,Sambreville,Namur
5060,Sambreville,Namur
5070,Fosses-la-Ville,Namur
5070,Fosses-la-Ville,Namur
5070,Fosses-la-Ville,Namur
5070,Fosses-la-Ville,Namur
5070,Fosses-la-Ville,Namur
5080,La Bruyère,Namur
5080,La Bruyère,Namur
5080,La Bruyère,Namur
5080,La Bruyère,Namur
5081,La Bruyère,Namur
5081,La Bruyère,Namur
5081,La Bruyère,Namur
5100,Namur,Namur
5100,Namur,Namur
5100,Namur,Namur
5100,Namur,Namur
5100,Namur,Namur
5101,Namur,Namur
5101,Namur,Namur
5101,Namur,Namur
5140,Sombreffe,Namur
5140,Sombreffe,Namur
5140,Sombreffe,Namur
5150,Floreffe,Namur
5150,Floreffe,Namur
5150,Floreffe,Namur
5170,Profondeville,Namur
5170,Profondeville,Namur
5170,Profondeville,Namur
5170,Profondeville,Namur
5170,Profondeville,Namur
5190,Jemeppe-sur-Sambre,Namur
5190,Jemeppe-sur-Sambre,Namur
5190,Jemeppe-sur-Sambre,Namur
5190,Jemeppe-sur-Sambre,Namur
5190,Jemeppe-sur-Sambre,Namur
5190,Jemeppe-sur-Sambre,Namur
5190,Jemeppe-sur-Sambre,Namur
5300,Andenne,Namur
5300,Andenne,Namur
5300,Andenne,Namur
5300,Andenne,Namur
5300,Andenne,Namur
5300,Andenne,Namur
5300,Andenne,Namur
5300,Andenne,Namur
5300,Andenne,Namur
5310,Éghezée,Namur
5310,Éghezée,Namur
5310,Éghezée,Namur
5310,Éghezée,Namur
5310,Éghezée,Namur
5310,Éghezée,Namur
5310,Éghezée,Namur
5310,Éghezée,Namur
5310,Éghezée,Namur
5310,Éghezée,Namur
5310,Éghezée,Namur
5310,Éghezée,Namur
5310,Éghezée,Namur
5310,Éghezée,Namur
5310,Éghezée,Namur
5330,Assesse,Namur
5330,Assesse,Namur
5332,Assesse,Namur
5333,Assesse,Namur
5334,Assesse,Namur
5336,Assesse,Namur
5340,Gesves,Namur
5340,Gesves,Namur
5340,Gesves,Namur
5340,Gesves,Namur
5350,Ohey,Namur
5351,Ohey,Namur
5352,Ohey,Namur
5353,Ohey,Namur
5354,Ohey,Namur
5360,Hamois,Namur
5361,Hamois,Namur
5361,Hamois,Namur
5362,Hamois,Namur
5363,Hamois,Namur
5364,Hamois,Namur
5370,Havelange,Namur
5370,Havelange,Namur
5370,Havelange,Namur
5370,Havelange,Namur
5370,Havelange,Namur
5372,Havelange,Namur
5374,Havelange,Namur
5376,Havelange,Namur
5377,Somme-Leuze,Namur
5377,Somme-Leuze,Namur
5377,Somme-Leuze,Namur
5377,Somme-Leuze,Namur
5377,Somme-Leuze,Namur
5377,Somme-Leuze,Namur
5377,Somme-Leuze,Namur
5377,Somme-Leuze,Namur
5380,Fernelmont,Namur
5380,Fernelmont,Namur
5380,Fernelmont,Namur
5380,Fernelmont,Namur
5380,Fernelmont,Namur
5380,Fernelmont,Namur
5380,Fernelmont,Namur
5380,Fernelmont,Namur
5380,Fernelmont,Namur
5380,Fernelmont,Namur
5500,Dinant,Namur
5500,Dinant,Namur
5500,Dinant,Namur
5500,Dinant,Namur
5500,Dinant,Namur
5500,Dinant,Namur
5501,Dinant,Namur
5502,Dinant,Namur
5503,Dinant,Namur
5504,Dinant,Namur
5520,Onhaye,Namur
5521,Onhaye,Namur
5522,Onhaye,Namur
5523,Onhaye,Namur
5523,Onhaye,Namur
5524,Onhaye,Namur
5530,Yvoir,Namur
5530,Yvoir,Namur
5530,Yvoir,Namur
5530,Yvoir,Namur
5530,Yvoir,Namur
5530,Yvoir,Namur
5530,Yvoir,Namur
5530,Yvoir,Namur
5537,Anhée,Namur
5537,Anhée,Namur
5537,Anhée,Namur
5537,Anhée,Namur
5537,Anhée,Namur
5537,Anhée,Namur
5537,Anhée,Namur
5537,Anhée,Namur
5540,Hastière,Namur
5540,Hastière,Namur
5540,Hastière,Namur
5541,Hastière,Namur
5542,Hastière,Namur
5543,Hastière,Namur
5544,Hastière,Namur
5550,Vresse-sur-Semois,Namur
5550,Vresse-sur-Semois,Namur
5550,Vresse-sur-Semois,Namur
5550,Vresse-sur-Semois,Namur
5550,Vresse-sur-Semois,Namur
5550,Vresse-sur-Semois,Namur
5550,Vresse-sur-Semois,Namur
5550,Vresse-sur-Semois,Namur
5550,Vresse-sur-Semois,Namur
5550,Vresse-sur-Semois,Namur
5550,Vresse-sur-Semois,Namur
5550,Vresse-sur-Semois,Namur
5555,Bièvre,Namur
5555,Bièvre,Namur
5555,Bièvre,Namur
5555,Bièvre,Namur
5555,Bièvre,Namur
5555,Bièvre,Namur
5555,Bièvre,Namur
5555,Bièvre,Namur
5555,Bièvre,Namur
5560,Houyet,Namur
5560,Houyet,Namur
5560,Houyet,Namur
5560,Houyet,Namur
5560,Houyet,Namur
5561,Houyet,Namur
5562,Houyet,Namur
5563,Houyet,Namur
5564,Houyet,Namur
5570,Beauraing,Namur
5570,Beauraing,Namur
5570,Beauraing,Namur
5570,Beauraing,Namur
5570,Beauraing,Namur
5570,Beauraing,Namur
5570,Beauraing,Namur
5570,Beauraing,Namur
5570,Beauraing,Namur
5571,Beauraing,Namur
5572,Beauraing,Namur
5573,Beauraing,Namur
5574,Beauraing,Namur
5575,Gedinne,Namur
5575,Gedinne,Namur
5575,Gedinne,Namur
5575,Gedinne,Namur
5575,Gedinne,Namur
5575,Gedinne,Namur
5575,Gedinne,Namur
5575,Gedinne,Namur
5575,Gedinne,Namur
5575,Gedinne,Namur
5575,Gedinne,Namur
5576,Beauraing,Namur
5580,Rochefort,Namur
5580,Rochefort,Namur
5580,Rochefort,Namur
5580,Rochefort,Namur
5580,Rochefort,Namur
5580,Rochefort,Namur
5580,Rochefort,Namur
5580,Rochefort,Namur
5580,Rochefort,Namur
5580,Rochefort,Namur
5590,Ciney,Namur
5590,Ciney,Namur
5590,Ciney,Namur
5590,Ciney,Namur
5590,Ciney,Namur
5590,Ciney,Namur
5590,Ciney,Namur
5590,Ciney,Namur
5600,Philippeville,Namur
5600,Philippeville,Namur
5600,Philippeville,Namur
5600,Philippeville,Namur
5600,Philippeville,Namur
5600,Philippeville,Namur
5600,Philippeville,Namur
5600,Philippeville,Namur
5600,Philippeville,Namur
5600,Philippeville,Namur
5600,Philippeville,Namur
5600,Philippeville,Namur
5600,Philippeville,Namur
5600,Philippeville,Namur
5600,Philippeville,Namur
5600,Philippeville,Namur
5620,Florennes,Namur
5620,Florennes,Namur
5620,Florennes,Namur
5620,Florennes,Namur
5620,Florennes,Namur
5620,Florennes,Namur
5621,Florennes,Namur
5621,Florennes,Namur
5621,Florennes,Namur
5621,Florennes,Namur
5630,Cerfontaine,Namur
5630,Cerfontaine,Namur
5630,Cerfontaine,Namur
5630,Cerfontaine,Namur
5630,Cerfontaine,Namur
5640,Mettet,Namur
5640,Mettet,Namur
5640,Mettet,Namur
5640,Mettet,Namur
5640,Mettet,Namur
5641,Mettet,Namur
5644,Mettet,Namur
5646,Mettet,Namur
5650,Walcourt,Namur
5650,Walcourt,Namur
5650,Walcourt,Namur
5650,Walcourt,Namur
5650,Walcourt,Namur
5650,Walcourt,Namur
5650,Walcourt,Namur
5650,Walcourt,Namur
5651,Walcourt,Namur
5651,Walcourt,Namur
5651,Walcourt,Namur
5651,Walcourt,Namur
5651,Walcourt,Namur
5651,Walcourt,Namur
5651,Walcourt,Namur
5660,Couvin,Namur
5660,Couvin,Namur
5660,Couvin,Namur
5660,Couvin,Namur
5660,Couvin,Namur
5660,Couvin,Namur
5660,Couvin,Namur
5660,Couvin,Namur
5660,Couvin,Namur
5660,Couvin,Namur
5660,Couvin,Namur
5660,Couvin,Namur
5660,Couvin,Namur
5670,Viroinval,Namur
5670,Viroinval,Namur
5670,Viroinval,Namur
5670,Viroinval,Namur
5670,Viroinval,Namur
5670,Viroinval,Namur
5670,Viroinval,Namur
5670,Viroinval,Namur
5680,Doische,Namur
5680,Doische,Namur
5680,Doische,Namur
5680,Doische,Namur
5680,Doische,Namur
5680,Doische,Namur
5680,Doische,Namur
5680,Doische,Namur
5680,Doische,Namur
6001,Charleroi,Hainaut
6010,Charleroi,Hainaut
6020,Charleroi,Hainaut
6030,Charleroi,Hainaut
6030,Charleroi,Hainaut
6031,Charleroi,Hainaut
6032,Charleroi,Hainaut
6040,Charleroi,Hainaut
6041,Charleroi,Hainaut
6042,Charleroi,Hainaut
6043,Charleroi,Hainaut
6044,Charleroi,Hainaut
6060,Charleroi,Hainaut
6061,Charleroi,Hainaut
6111,Montigny-le-Tilleul,Hainaut
6120,Ham-sur-Heure-Nalinnes,Hainaut
6120,Ham-sur-Heure-Nalinnes,Hainaut
6120,Ham-sur-Heure-Nalinnes,Hainaut
6120,Ham-sur-Heure-Nalinnes,Hainaut
6120,Ham-sur-Heure-Nalinnes,Hainaut
6141,Fontaine-l'Évêque,Hainaut
6142,Fontaine-l'Évêque,Hainaut
6181,Courcelles,Hainaut
6182,Courcelles,Hainaut
6183,Courcelles,Hainaut
6200,Châtelet,Hainaut
6200,Châtelet,Hainaut
6210,Les Bons Villers,Hainaut
6210,Les Bons Villers,Hainaut
6210,Les Bons Villers,Hainaut
6210,Les Bons Villers,Hainaut
6211,Les Bons Villers,Hainaut
6220,Fleurus,Hainaut
6220,Fleurus,Hainaut
6220,Fleurus,Hainaut
6221,Fleurus,Hainaut
6222,Fleurus,Hainaut
6223,Fleurus,Hainaut
6224,Fleurus,Hainaut
6230,Pont-à-Celles,Hainaut
6230,Pont-à-Celles,Hainaut
6230,Pont-à-Celles,Hainaut
6230,Pont-à-Celles,Hainaut
6238,Pont-à-Celles,Hainaut
6238,Pont-à-Celles,Hainaut
6240,Farciennes,Hainaut
6250,Aiseau-Presles,Hainaut
6250,Aiseau-Presles,Hainaut
6250,Aiseau-Presles,Hainaut
6250,Aiseau-Presles,Hainaut
6280,Gerpinnes,Hainaut
6280,Gerpinnes,Hainaut
6280,Gerpinnes,Hainaut
6280,Gerpinnes,Hainaut
6280,Gerpinnes,Hainaut
6440,Froidchapelle,Hainaut
6440,Froidchapelle,Hainaut
6440,Froidchapelle,Hainaut
6441,Froidchapelle,Hainaut
6460,Chimay,Hainaut
6460,Chimay,Hainaut
6460,Chimay,Hainaut
6460,Chimay,Hainaut
6460,Chimay,Hainaut
6461,Chimay,Hainaut
6462,Chimay,Hainaut
6463,Chimay,Hainaut
6464,Chimay,Hainaut
6464,Chimay,Hainaut
6464,Chimay,Hainaut
6464,Chimay,Hainaut
6464,Chimay,Hainaut
6470,Sivry-Rance,Hainaut
6470,Sivry-Rance,Hainaut
6470,Sivry-Rance,Hainaut
6470,Sivry-Rance,Hainaut
6470,Sivry-Rance,Hainaut
6500,Beaumont,Hainaut
6500,Beaumont,Hainaut
6500,Beaumont,Hainaut
6500,Beaumont,Hainaut
6500,Beaumont,Hainaut
6500,Beaumont,Hainaut
6511,Beaumont,Hainaut
6530,Thuin,Hainaut
6531,Thuin,Hainaut
6532,Thuin,Hainaut
6533,Thuin,Hainaut
6534,Thuin,Hainaut
6536,Thuin,Hainaut
6536,Thuin,Hainaut
6540,Lobbes,Hainaut
6542,Lobbes,Hainaut
6543,Lobbes,Hainaut
6560,Erquelinnes,Hainaut
6560,Erquelinnes,Hainaut
6560,Erquelinnes,Hainaut
6560,Erquelinnes,Hainaut
6560,Erquelinnes,Hainaut
6567,Merbes-le-Château,Hainaut
6567,Merbes-le-Château,Hainaut
6567,Merbes-le-Château,Hainaut
6591,Momignies,Hainaut
6592,Momignies,Hainaut
6593,Momignies,Hainaut
6594,Momignies,Hainaut
6596,Momignies,Hainaut
6596,Momignies,Hainaut
6600,Bastogne,Luxembourg
6600,Bastogne,Luxembourg
6600,Bastogne,Luxembourg
6600,Bastogne,Luxembourg
6637,Fauvillers,Luxembourg
6637,Fauvillers,Luxembourg
6640,Vaux-sur-Sûre,Luxembourg
6640,Vaux-sur-Sûre,Luxembourg
6640,Vaux-sur-Sûre,Luxembourg
6640,Vaux-sur-Sûre,Luxembourg
6640,Vaux-sur-Sûre,Luxembourg
6642,Vaux-sur-Sûre,Luxembourg
6660,Houffalize,Luxembourg
6661,Houffalize,Luxembourg
6661,Houffalize,Luxembourg
6662,Houffalize,Luxembourg
6663,Houffalize,Luxembourg
6666,Houffalize,Luxembourg
6670,Gouvy,Luxembourg
6671,Gouvy,Luxembourg
6672,Gouvy,Luxembourg
6673,Gouvy,Luxembourg
6674,Gouvy,Luxembourg
6680,Sainte-Ode,Luxembourg
6680,Sainte-Ode,Luxembourg
6681,Sainte-Ode,Luxembourg
6686,Bertogne,Luxembourg
6688,Bertogne,Luxembourg
6690,Vielsalm,Luxembourg
6692,Vielsalm,Luxembourg
6698,Vielsalm,Luxembourg
6700,Arlon,Luxembourg
6700,Arlon,Luxembourg
6700,Arlon,Luxembourg
6704,Arlon,Luxembourg
6706,Arlon,Luxembourg
6717,Attert,Luxembourg
6717,Attert,Luxembourg
6717,Attert,Luxembourg
6717,Attert,Luxembourg
6720,Habay,Luxembourg
6720,Habay,Luxembourg
6721,Habay,Luxembourg
6723,Habay,Luxembourg
6724,Habay,Luxembourg
6724,Habay,Luxembourg
6730,Tintigny,Luxembourg
6730,Tintigny,Luxembourg
6730,Tintigny,Luxembourg
6740,Étalle,Luxembourg
6740,Étalle,Luxembourg
6741,Étalle,Luxembourg
6742,Étalle,Luxembourg
6743,Étalle,Luxembourg
6747,Saint-Léger,Luxembourg
6747,Saint-Léger,Luxembourg
6750,Musson,Luxembourg
6760,Virton,Luxembourg
6760,Virton,Luxembourg
6760,Virton,Luxembourg
6761,Virton,Luxembourg
6762,Virton,Luxembourg
6767,Rouvroy,Luxembourg
6767,Rouvroy,Luxembourg
6767,Rouvroy,Luxembourg
6767,Rouvroy,Luxembourg
6769,Meix-devant-Virton,Luxembourg
6769,Meix-devant-Virton,Luxembourg
6769,Meix-devant-Virton,Luxembourg
6769,Meix-devant-Virton,Luxembourg
6780,Messancy,Luxembourg
6780,Messancy,Luxembourg
6781,Messancy,Luxembourg
6782,Messancy,Luxembourg
6791,Aubange,Luxembourg
6792,Aubange,Luxembourg
6792,Aubange,Luxembourg
6800,Libramont-Chevigny,Luxembourg
6800,Libramont-Chevigny,Luxembourg
6800,Libramont-Chevigny,Luxembourg
6800,Libramont-Chevigny,Luxembourg
6800,Libramont-Chevigny,Luxembourg
6800,Libramont-Chevigny,Luxembourg
6800,Libramont-Chevigny,Luxembourg
6800,Libramont-Chevigny,Luxembourg
6810,Chiny,Luxembourg
6810,Chiny,Luxembourg
6811,Chiny,Luxembourg
6812,Chiny,Luxembourg
6813,Chiny,Luxembourg
6820,Florenville,Luxembourg
6820,Florenville,Luxembourg
6820,Florenville,Luxembourg
6821,Florenville,Luxembourg
6823,Florenville,Luxembourg
6824,Florenville,Luxembourg
6830,Bouillon,Luxembourg
6830,Bouillon,Luxembourg
6830,Bouillon,Luxembourg
6831,Bouillon,Luxembourg
6832,Bouillon,Luxembourg
6833,Bouillon,Luxembourg
6833,Bouillon,Luxembourg
6834,Bouillon,Luxembourg
6836,Bouillon,Luxembourg
6838,Bouillon,Luxembourg
6840,Neufchâteau,Luxembourg
6840,Neufchâteau,Luxembourg
6840,Neufchâteau,Luxembourg
6840,Neufchâteau,Luxembourg
6840,Neufchâteau,Luxembourg
6850,Paliseul,Luxembourg
6850,Paliseul,Luxembourg
6851,Paliseul,Luxembourg
6852,Paliseul,Luxembourg
6852,Paliseul,Luxembourg
6853,Paliseul,Luxembourg
6856,Paliseul,Luxembourg
6860,Léglise,Luxembourg
6860,Léglise,Luxembourg
6860,Léglise,Luxembourg
6860,Léglise,Luxembourg
6870,Saint-Hubert,Luxembourg
6870,Saint-Hubert,Luxembourg
6870,Saint-Hubert,Luxembourg
6870,Saint-Hubert,Luxembourg
6870,Saint-Hubert,Luxembourg
6880,Bertrix,Luxembourg
6880,Bertrix,Luxembourg
6880,Bertrix,Luxembourg
6880,Bertrix,Luxembourg
6887,Herbeumont,Luxembourg
6887,Herbeumont,Luxembourg
6890,Libin,Luxembourg
6890,Libin,Luxembourg
6890,Libin,Luxembourg
6890,Libin,Luxembourg
6890,Libin,Luxembourg
6890,Libin,Luxembourg
6900,Marche-en-Famenne,Luxembourg
6900,Marche-en-Famenne,Luxembourg
6900,Marche-en-Famenne,Luxembourg
6900,Marche-en-Famenne,Luxembourg
6900,Marche-en-Famenne,Luxembourg
6900,Marche-en-Famenne,Luxembourg
6920,Wellin,Luxembourg
6921,Wellin,Luxembourg
6922,Wellin,Luxembourg
6924,Wellin,Luxembourg
6927,Tellin,Luxembourg
6927,Tellin,Luxembourg
6927,Tellin,Luxembourg
6929,Daverdisse,Luxembourg
6929,Daverdisse,Luxembourg
6929,Daverdisse,Luxembourg
6940,Durbuy,Luxembourg
6940,Durbuy,Luxembourg
6940,Durbuy,Luxembourg
6940,Durbuy,Luxembourg
6941,Durbuy,Luxembourg
6941,Durbuy,Luxembourg
6941,Durbuy,Luxembourg
6941,Durbuy,Luxembourg
6941,Durbuy,Luxembourg
6941,Durbuy,Luxembourg
6941,Durbuy,Luxembourg
6950,Nassogne,Luxembourg
6951,Nassogne,Luxembourg
6952,Nassogne,Luxembourg
6953,Nassogne,Luxembourg
6953,Nassogne,Luxembourg
6953,Nassogne,Luxembourg
6953,Nassogne,Luxembourg
6960,Manhay,Luxembourg
6960,Manhay,Luxembourg
6960,Manhay,Luxembourg
6960,Manhay,Luxembourg
6960,Manhay,Luxembourg
6960,Manhay,Luxembourg
6971,Tenneville,Luxembourg
6972,Tenneville,Luxembourg
6980,La Roche-en-Ardenne,Luxembourg
6982,La Roche-en-Ardenne,Luxembourg
6983,La Roche-en-Ardenne,Luxembourg
6984,La Roche-en-Ardenne,Luxembourg
6986,La Roche-en-Ardenne,Luxembourg
6987,Rendeux,Luxembourg
6987,Rendeux,Luxembourg
6987,Rendeux,Luxembourg
6990,Hotton,Luxembourg
6990,Hotton,Luxembourg
6990,Hotton,Luxembourg
6997,Érezée,Luxembourg
6997,Érezée,Luxembourg
6997,Érezée,Luxembourg
7011,Mons,Hainaut
7012,Mons,Hainaut
7012,Mons,Hainaut
7020,Mons,Hainaut
7020,Mons,Hainaut
7021,Mons,Hainaut
7022,Mons,Hainaut
7022,Mons,Hainaut
7022,Mons,Hainaut
7022,Mons,Hainaut
7022,Mons,Hainaut
7024,Mons,Hainaut
7030,Mons,Hainaut
7031,Mons,Hainaut
7032,Mons,Hainaut
7033,Mons,Hainaut
7034,Mons,Hainaut
7034,Mons,Hainaut
7040,Quévy,Hainaut
7040,Quévy,Hainaut
7040,Quévy,Hainaut
7040,Quévy,Hainaut
7040,Quévy,Hainaut
7040,Quévy,Hainaut
7040,Quévy,Hainaut
7040,Quévy,Hainaut
7041,Quévy,Hainaut
7041,Quévy,Hainaut
7050,Jurbise,Hainaut
7050,Jurbise,Hainaut
7050,Jurbise,Hainaut
7050,Jurbise,Hainaut
7050,Jurbise,Hainaut
7060,Soignies,Hainaut
7061,Soignies,Hainaut
7061,Soignies,Hainaut
7062,Soignies,Hainaut
7063,Soignies,Hainaut
7063,Soignies,Hainaut
7070,Le Roeulx,Hainaut
7070,Le Roeulx,Hainaut
7070,Le Roeulx,Hainaut
7070,Le Roeulx,Hainaut
7080,Frameries,Hainaut
7080,Frameries,Hainaut
7080,Frameries,Hainaut
7080,Frameries,Hainaut
7090,Braine-le-Comte,Hainaut
7090,Braine-le-Comte,Hainaut
7090,Braine-le-Comte,Hainaut
7090,Braine-le-Comte,Hainaut
7090,Braine-le-Comte,Hainaut
7100,La Louvière,Hainaut
7100,La Louvière,Hainaut
7100,La Louvière,Hainaut
7100,La Louvière,Hainaut
7110,La Louvière,Hainaut
7110,La Louvière,Hainaut
7110,La Louvière,Hainaut
7110,La Louvière,Hainaut
7120,Estinnes,Hainaut
7120,Estinnes,Hainaut
7120,Estinnes,Hainaut
7120,Estinnes,Hainaut
7120,Estinnes,Hainaut
7120,Estinnes,Hainaut
7120,Estinnes,Hainaut
7120,Estinnes,Hainaut
7120,Estinnes,Hainaut
7130,Binche,Hainaut
7130,Binche,Hainaut
7131,Binche,Hainaut
7133,Binche,Hainaut
7134,Binche,Hainaut
7134,Binche,Hainaut
7134,Binche,Hainaut
7134,Binche,Hainaut
7140,Morlanwelz,Hainaut
7141,Morlanwelz,Hainaut
7141,Morlanwelz,Hainaut
7160,Chapelle-lez-Herlaimont,Hainaut
7160,Chapelle-lez-Herlaimont,Hainaut
7170,Manage,Hainaut
7170,Manage,Hainaut
7170,Manage,Hainaut
7170,Manage,Hainaut
7181,Seneffe,Hainaut
7181,Seneffe,Hainaut
7181,Seneffe,Hainaut
7181,Seneffe,Hainaut
7190,Écaussinnes,Hainaut
7190,Écaussinnes,Hainaut
7191,Écaussinnes,Hainaut
7301,Boussu,Hainaut
7321,Bernissart,Hainaut
7321,Bernissart,Hainaut
7322,Bernissart,Hainaut
7322,Bernissart,Hainaut
7331,Saint-Ghislain,Hainaut
7332,Saint-Ghislain,Hainaut
7332,Saint-Ghislain,Hainaut
7333,Saint-Ghislain,Hainaut
7334,Saint-Ghislain,Hainaut
7334,Saint-Ghislain,Hainaut
7340,Colfontaine,Hainaut
7340,Colfontaine,Hainaut
7340,Colfontaine,Hainaut
7350,Hensies,Hainaut
7350,Hensies,Hainaut
7350,Hensies,Hainaut
7370,Dour,Hainaut
7370,Dour,Hainaut
7370,Dour,Hainaut
7380,Quiévrain,Hainaut
7382,Quiévrain,Hainaut
7387,Honnelles,Hainaut
7387,Honnelles,Hainaut
7387,Honnelles,Hainaut
7387,Honnelles,Hainaut
7387,Honnelles,Hainaut
7387,Honnelles,Hainaut
7387,Honnelles,Hainaut
7387,Honnelles,Hainaut
7387,Honnelles,Hainaut
7387,Honnelles,Hainaut
7390,Quaregnon,Hainaut
7500,Tournai,Hainaut
7500,Tournai,Hainaut
7501,Tournai,Hainaut
7502,Tournai,Hainaut
7503,Tournai,Hainaut
7504,Tournai,Hainaut
7506,Tournai,Hainaut
7520,Tournai,Hainaut
7520,Tournai,Hainaut
7521,Tournai,Hainaut
7522,Tournai,Hainaut
7522,Tournai,Hainaut
7522,Tournai,Hainaut
7522,Tournai,Hainaut
7530,Tournai,Hainaut
7531,Tournai,Hainaut
7532,Tournai,Hainaut
7533,Tournai,Hainaut
7534,Tournai,Hainaut
7534,Tournai,Hainaut
7536,Tournai,Hainaut
7538,Tournai,Hainaut
7540,Tournai,Hainaut
7540,Tournai,Hainaut
7540,Tournai,Hainaut
7540,Tournai,Hainaut
7542,Tournai,Hainaut
7543,Tournai,Hainaut
7548,Tournai,Hainaut
7601,Péruwelz,Hainaut
7602,Péruwelz,Hainaut
7603,Péruwelz,Hainaut
7604,Péruwelz,Hainaut
7604,Péruwelz,Hainaut
7604,Péruwelz,Hainaut
7604,Péruwelz,Hainaut
7604,Péruwelz,Hainaut
7608,Péruwelz,Hainaut
7611,Rumes,Hainaut
7618,Rumes,Hainaut
7620,Brunehaut,Hainaut
7620,Brunehaut,Hainaut
7620,Brunehaut,Hainaut
7620,Brunehaut,Hainaut
7620,Brunehaut,Hainaut
7621,Brunehaut,Hainaut
7622,Brunehaut,Hainaut
7623,Brunehaut,Hainaut
7624,Brunehaut,Hainaut
7640,Antoing,Hainaut
7640,Antoing,Hainaut
7641,Antoing,Hainaut
7642,Antoing,Hainaut
7643,Antoing,Hainaut
7700,Mouscron,Hainaut
7710,La Louvière,Hainaut
7711,Mouscron,Hainaut
7711,Mouscron,Hainaut
7712,Mouscron,Hainaut
7730,Estaimpuis,Hainaut
7730,Estaimpuis,Hainaut
7730,Estaimpuis,Hainaut
7730,Estaimpuis,Hainaut
7730,Estaimpuis,Hainaut
7730,Estaimpuis,Hainaut
7740,Pecq,Hainaut
7742,Pecq,Hainaut
7743,Pecq,Hainaut
7743,Pecq,Hainaut
7750,Mont-de-l'Enclus,Hainaut
7750,Mont-de-l'Enclus,Hainaut
7750,Mont-de-l'Enclus,Hainaut
7750,Mont-de-l'Enclus,Hainaut
7760,Celles,Hainaut
7760,Celles,Hainaut
7760,Celles,Hainaut
7760,Celles,Hainaut
7760,Celles,Hainaut
7780,Comines-Warneton,Hainaut
7780,Comines-Warneton,Hainaut
7781,Comines-Warneton,Hainaut
7782,Comines-Warneton,Hainaut
7784,Comines-Warneton,Hainaut
7784,Comines-Warneton,Hainaut
7784,Comines-Warneton,Hainaut
7784,Comines-Warneton,Hainaut
7800,Ath,Hainaut
7801,Ath,Hainaut
7802,Ath,Hainaut
7803,Ath,Hainaut
7804,Ath,Hainaut
7804,Ath,Hainaut
7810,Ath,Hainaut
7811,Ath,Hainaut
7812,Ath,Hainaut
7812,Ath,Hainaut
7812,Ath,Hainaut
7812,Ath,Hainaut
7812,Ath,Hainaut
7812,Ath,Hainaut
7822,Ath,Hainaut
7822,Ath,Hainaut
7822,Ath,Hainaut
7823,Ath,Hainaut
7830,Silly,Hainaut
7830,Silly,Hainaut
7830,Silly,Hainaut
7830,Silly,Hainaut
7830,Silly,Hainaut
7830,Silly,Hainaut
7830,Silly,Hainaut
7850,Enghien,Hainaut
7850,Enghien,Hainaut
7850,Enghien,Hainaut
7850,Enghien,Hainaut
7861,Lessines,Hainaut
7861,Lessines,Hainaut
7862,Lessines,Hainaut
7863,Lessines,Hainaut
7864,Lessines,Hainaut
7866,Lessines,Hainaut
7866,Lessines,Hainaut
7870,Lens,Hainaut
7870,Lens,Hainaut
7870,Lens,Hainaut
7870,Lens,Hainaut
7890,Ellezelles,Hainaut
7890,Ellezelles,Hainaut
7900,Leuze-en-Hainaut,Hainaut
7900,Leuze-en-Hainaut,Hainaut
7901,Leuze-en-Hainaut,Hainaut
7903,Leuze-en-Hainaut,Hainaut
7903,Leuze-en-Hainaut,Hainaut
7903,Leuze-en-Hainaut,Hainaut
7904,Leuze-en-Hainaut,Hainaut
7904,Leuze-en-Hainaut,Hainaut
7904,Leuze-en-Hainaut,Hainaut
7906,Leuze-en-Hainaut,Hainaut
7910,Frasnes-lez-Anvaing,Hainaut
7910,Frasnes-lez-Anvaing,Hainaut
7910,Frasnes-lez-Anvaing,Hainaut
7910,Frasnes-lez-Anvaing,Hainaut
7910,Frasnes-lez-Anvaing,Hainaut
7910,Frasnes-lez-Anvaing,Hainaut
7910,Frasnes-lez-Anvaing,Hainaut
7911,Frasnes-lez-Anvaing,Hainaut
7911,Frasnes-lez-Anvaing,Hainaut
7911,Frasnes-lez-Anvaing,Hainaut
7911,Frasnes-lez-Anvaing,Hainaut
7911,Frasnes-lez-Anvaing,Hainaut
7911,Frasnes-lez-Anvaing,Hainaut
7911,Frasnes-lez-Anvaing,Hainaut
7912,Frasnes-lez-Anvaing,Hainaut
7912,Frasnes-lez-Anvaing,Hainaut
7940,Brugelette,Hainaut
7941,Brugelette,Hainaut
7942,Brugelette,Hainaut
7943,Brugelette,Hainaut
7950,Chièvres,Hainaut
7950,Chièvres,Hainaut
7950,Chièvres,Hainaut
7950,Chièvres,Hainaut
7951,Chièvres,Hainaut
7971,Beloeil,Hainaut
7971,Beloeil,Hainaut
7971,Beloeil,Hainaut
7971,Beloeil,Hainaut
7972,Beloeil,Hainaut
7972,Beloeil,Hainaut
7972,Beloeil,Hainaut
7973,Beloeil,Hainaut
7973,Beloeil,Hainaut
8000,Brugge,West-Vlaanderen
8020,Oostkamp,West-Vlaanderen
8020,Oostkamp,West-Vlaanderen
8020,Oostkamp,West-Vlaanderen
8200,Brugge,West-Vlaanderen
8200,Brugge,West-Vlaanderen
8210,Zedelgem,West-Vlaanderen
8210,Zedelgem,West-Vlaanderen
8211,Zedelgem,West-Vlaanderen
8300,Knokke-Heist,West-Vlaanderen
8300,Knokke-Heist,West-Vlaanderen
8301,Knokke-Heist,West-Vlaanderen
8301,Knokke-Heist,West-Vlaanderen
8310,Brugge,West-Vlaanderen
8310,Brugge,West-Vlaanderen
8340,Damme,West-Vlaanderen
8340,Damme,West-Vlaanderen
8340,Damme,West-Vlaanderen
8340,Damme,West-Vlaanderen
8340,Damme,West-Vlaanderen
8370,Blankenberge,West-Vlaanderen
8377,Zuienkerke,West-Vlaanderen
8377,Zuienkerke,West-Vlaanderen
8377,Zuienkerke,West-Vlaanderen
8380,Brugge,West-Vlaanderen
8380,Brugge,West-Vlaanderen
8400,Oostende,West-Vlaanderen
8400,Oostende,West-Vlaanderen
8420,De Haan,West-Vlaanderen
8420,De Haan,West-Vlaanderen
8421,De Haan,West-Vlaanderen
8431,Middelkerke,West-Vlaanderen
8432,Middelkerke,West-Vlaanderen
8433,Middelkerke,West-Vlaanderen
8433,Middelkerke,West-Vlaanderen
8433,Middelkerke,West-Vlaanderen
8433,Middelkerke,West-Vlaanderen
8434,Middelkerke,West-Vlaanderen
8434,Middelkerke,West-Vlaanderen
8460,Oudenburg,West-Vlaanderen
8460,Oudenburg,West-Vlaanderen
8460,Oudenburg,West-Vlaanderen
8470,Gistel,West-Vlaanderen
8470,Gistel,West-Vlaanderen
8470,Gistel,West-Vlaanderen
8480,Ichtegem,West-Vlaanderen
8480,Ichtegem,West-Vlaanderen
8490,Jabbeke,West-Vlaanderen
8490,Jabbeke,West-Vlaanderen
8490,Jabbeke,West-Vlaanderen
8490,Jabbeke,West-Vlaanderen
8501,Kortrijk,West-Vlaanderen
8501,Kortrijk,West-Vlaanderen
8510,Kortrijk,West-Vlaanderen
8510,Kortrijk,West-Vlaanderen
8510,Kortrijk,West-Vlaanderen
8510,Kortrijk,West-Vlaanderen
8511,Kortrijk,West-Vlaanderen
8531,Harelbeke,West-Vlaanderen
8531,Harelbeke,West-Vlaanderen
8551,Zwevegem,West-Vlaanderen
8552,Zwevegem,West-Vlaanderen
8553,Zwevegem,West-Vlaanderen
8554,Zwevegem,West-Vlaanderen
8560,Wevelgem,West-Vlaanderen
8560,Wevelgem,West-Vlaanderen
8570,Anzegem,West-Vlaanderen
8570,Anzegem,West-Vlaanderen
8570,Anzegem,West-Vlaanderen
8572,Anzegem,West-Vlaanderen
8573,Anzegem,West-Vlaanderen
8581,Avelgem,West-Vlaanderen
8581,Avelgem,West-Vlaanderen
8582,Avelgem,West-Vlaanderen
8583,Avelgem,West-Vlaanderen
8587,Espierres-Helchin,West-Vlaanderen
8587,Espierres-Helchin,West-Vlaanderen
8587,Spiere-Helkijn,West-Vlaanderen
8587,Spiere-Helkijn,West-Vlaanderen
8600,Diksmuide,West-Vlaanderen
8600,Diksmuide,West-Vlaanderen
8600,Diksmuide,West-Vlaanderen
8600,Diksmuide,West-Vlaanderen
8600,Diksmuide,West-Vlaanderen
8600,Diksmuide,West-Vlaanderen
8600,Diksmuide,West-Vlaanderen
8600,Diksmuide,West-Vlaanderen
8600,Diksmuide,West-Vlaanderen
8600,Diksmuide,West-Vlaanderen
8600,Diksmuide,West-Vlaanderen
8600,Diksmuide,West-Vlaanderen
8600,Diksmuide,West-Vlaanderen
8600,Diksmuide,West-Vlaanderen
8600,Diksmuide,West-Vlaanderen
8610,Kortemark,West-Vlaanderen
8610,Kortemark,West-Vlaanderen
8610,Kortemark,West-Vlaanderen
8620,Nieuwpoort,West-Vlaanderen
8620,Nieuwpoort,West-Vlaanderen
8630,Veurne,West-Vlaanderen
8630,Veurne,West-Vlaanderen
8630,Veurne,West-Vlaanderen
8630,Veurne,West-Vlaanderen
8630,Veurne,West-Vlaanderen
8630,Veurne,West-Vlaanderen
8630,Veurne,West-Vlaanderen
8630,Veurne,West-Vlaanderen
8630,Veurne,West-Vlaanderen
8630,Veurne,West-Vlaanderen
8630,Veurne,West-Vlaanderen
8640,Vleteren,West-Vlaanderen
8640,Vleteren,West-Vlaanderen
8640,Vleteren,West-Vlaanderen
8647,Lo-Reninge,West-Vlaanderen
8647,Lo-Reninge,West-Vlaanderen
8647,Lo-Reninge,West-Vlaanderen
8647,Lo-Reninge,West-Vlaanderen
8650,Houthulst,West-Vlaanderen
8650,Houthulst,West-Vlaanderen
8660,De Panne,West-Vlaanderen
8670,Koksijde,West-Vlaanderen
8670,Koksijde,West-Vlaanderen
8680,Koekelare,West-Vlaanderen
8680,Koekelare,West-Vlaanderen
8690,Alveringem,West-Vlaanderen
8690,Alveringem,West-Vlaanderen
8690,Alveringem,West-Vlaanderen
8691,Alveringem,West-Vlaanderen
8691,Alveringem,West-Vlaanderen
8691,Alveringem,West-Vlaanderen
8691,Alveringem,West-Vlaanderen
8691,Alveringem,West-Vlaanderen
8700,Tielt,West-Vlaanderen
8700,Tielt,West-Vlaanderen
8700,Tielt,West-Vlaanderen
8710,Wielsbeke,West-Vlaanderen
8710,Wielsbeke,West-Vlaanderen
8720,Dentergem,West-Vlaanderen
8720,Dentergem,West-Vlaanderen
8720,Dentergem,West-Vlaanderen
8730,Beernem,West-Vlaanderen
8730,Beernem,West-Vlaanderen
8740,Pittem,West-Vlaanderen
8750,Wingene,West-Vlaanderen
8791,Waregem,West-Vlaanderen
8792,Waregem,West-Vlaanderen
8793,Waregem,West-Vlaanderen
8800,Roeselare,West-Vlaanderen
8800,Roeselare,West-Vlaanderen
8800,Roeselare,West-Vlaanderen
8830,Hooglede,West-Vlaanderen
8840,Staden,West-Vlaanderen
8840,Staden,West-Vlaanderen
8851,Ardooie,West-Vlaanderen
8870,Izegem,West-Vlaanderen
8870,Izegem,West-Vlaanderen
8880,Ledegem,West-Vlaanderen
8880,Ledegem,West-Vlaanderen
8890,Moorslede,West-Vlaanderen
8900,Ieper,West-Vlaanderen
8900,Ieper,West-Vlaanderen
8900,Ieper,West-Vlaanderen
8902,Ieper,West-Vlaanderen
8902,Ieper,West-Vlaanderen
8902,Ieper,West-Vlaanderen
8904,Ieper,West-Vlaanderen
8904,Ieper,West-Vlaanderen
8906,Ieper,West-Vlaanderen
8908,Ieper,West-Vlaanderen
8920,Langemark-Poelkapelle,West-Vlaanderen
8920,Langemark-Poelkapelle,West-Vlaanderen
8920,Langemark-Poelkapelle,West-Vlaanderen
8930,Menen,West-Vlaanderen
8930,Menen,West-Vlaanderen
8940,Wervik,West-Vlaanderen
8950,Heuvelland,West-Vlaanderen
8951,Heuvelland,West-Vlaanderen
8952,Heuvelland,West-Vlaanderen
8953,Heuvelland,West-Vlaanderen
8954,Heuvelland,West-Vlaanderen
8956,Heuvelland,West-Vlaanderen
8958,Heuvelland,West-Vlaanderen
8970,Poperinge,West-Vlaanderen
8972,Poperinge,West-Vlaanderen
8972,Poperinge,West-Vlaanderen
8972,Poperinge,West-Vlaanderen
8978,Poperinge,West-Vlaanderen
8980,Zonnebeke,West-Vlaanderen
8980,Zonnebeke,West-Vlaanderen
8980,Zonnebeke,West-Vlaanderen
8980,Zonnebeke,West-Vlaanderen
9030,Gent,Oost-Vlaanderen
9031,Gent,Oost-Vlaanderen
9032,Gent,Oost-Vlaanderen
9040,Gent,Oost-Vlaanderen
9041,Gent,Oost-Vlaanderen
9042,Gent,Oost-Vlaanderen
9042,Gent,Oost-Vlaanderen
9042,Gent,Oost-Vlaanderen
9050,Gent,Oost-Vlaanderen
9050,Gent,Oost-Vlaanderen
9051,Gent,Oost-Vlaanderen
9051,Gent,Oost-Vlaanderen
9052,Gent,Oost-Vlaanderen
9070,Destelbergen,Oost-Vlaanderen
9080,Lochristi,Oost-Vlaanderen
9080,Lochristi,Oost-Vlaanderen
9080,Lochristi,Oost-Vlaanderen
9090,Melle,Oost-Vlaanderen
9100,Sint-Niklaas,Oost-Vlaanderen
9111,Sint-Niklaas,Oost-Vlaanderen
9112,Sint-Niklaas,Oost-Vlaanderen
9120,Beveren,Oost-Vlaanderen
9120,Beveren,Oost-Vlaanderen
9120,Beveren,Oost-Vlaanderen
9130,Beveren,Oost-Vlaanderen
9130,Beveren,Oost-Vlaanderen
9130,Beveren,Oost-Vlaanderen
9130,Beveren,Oost-Vlaanderen
9140,Temse,Oost-Vlaanderen
9140,Temse,Oost-Vlaanderen
9140,Temse,Oost-Vlaanderen
9150,Kruibeke,Oost-Vlaanderen
9150,Kruibeke,Oost-Vlaanderen
9160,Lokeren,Oost-Vlaanderen
9160,Lokeren,Oost-Vlaanderen
9170,Sint-Gillis-Waas,Oost-Vlaanderen
9170,Sint-Gillis-Waas,Oost-Vlaanderen
9170,Sint-Gillis-Waas,Oost-Vlaanderen
9190,Stekene,Oost-Vlaanderen
9200,Dendermonde,Oost-Vlaanderen
9200,Dendermonde,Oost-Vlaanderen
9200,Dendermonde,Oost-Vlaanderen
9200,Dendermonde,Oost-Vlaanderen
9200,Dendermonde,Oost-Vlaanderen
9200,Dendermonde,Oost-Vlaanderen
9200,Dendermonde,Oost-Vlaanderen
9220,Hamme,Oost-Vlaanderen
9230,Wetteren,Oost-Vlaanderen
9230,Wetteren,Oost-Vlaanderen
9255,Buggenhout,Oost-Vlaanderen
9260,Wichelen,Oost-Vlaanderen
9260,Wichelen,Oost-Vlaanderen
9270,Laarne,Oost-Vlaanderen
9280,Lebbeke,Oost-Vlaanderen
9280,Lebbeke,Oost-Vlaanderen
9290,Berlare,Oost-Vlaanderen
9290,Berlare,Oost-Vlaanderen
9308,Aalst,Oost-Vlaanderen
9308,Aalst,Oost-Vlaanderen
9310,Aalst,Oost-Vlaanderen
9310,Aalst,Oost-Vlaanderen
9310,Aalst,Oost-Vlaanderen
9310,Aalst,Oost-Vlaanderen
9320,Aalst,Oost-Vlaanderen
9320,Aalst,Oost-Vlaanderen
9340,Lede,Oost-Vlaanderen
9340,Lede,Oost-Vlaanderen
9340,Lede,Oost-Vlaanderen
9340,Lede,Oost-Vlaanderen
9400,Ninove,Oost-Vlaanderen
9400,Ninove,Oost-Vlaanderen
9400,Ninove,Oost-Vlaanderen
9400,Ninove,Oost-Vlaanderen
9400,Ninove,Oost-Vlaanderen
9400,Ninove,Oost-Vlaanderen
9401,Ninove,Oost-Vlaanderen
9402,Ninove,Oost-Vlaanderen
9403,Ninove,Oost-Vlaanderen
9404,Ninove,Oost-Vlaanderen
9406,Ninove,Oost-Vlaanderen
9420,Erpe-Mere,Oost-Vlaanderen
9420,Erpe-Mere,Oost-Vlaanderen
9420,Erpe-Mere,Oost-Vlaanderen
9420,Erpe-Mere,Oost-Vlaanderen
9420,Erpe-Mere,Oost-Vlaanderen
9420,Erpe-Mere,Oost-Vlaanderen
9420,Erpe-Mere,Oost-Vlaanderen
9420,Erpe-Mere,Oost-Vlaanderen
9450,Haaltert,Oost-Vlaanderen
9450,Haaltert,Oost-Vlaanderen
9451,Haaltert,Oost-Vlaanderen
9472,Denderleeuw,Oost-Vlaanderen
9473,Denderleeuw,Oost-Vlaanderen
9500,Geraardsbergen,Oost-Vlaanderen
9500,Geraardsbergen,Oost-Vlaanderen
9500,Geraardsbergen,Oost-Vlaanderen
9500,Geraardsbergen,Oost-Vlaanderen
9500,Geraardsbergen,Oost-Vlaanderen
9500,Geraardsbergen,Oost-Vlaanderen
9500,Geraardsbergen,Oost-Vlaanderen
9500,Geraardsbergen,Oost-Vlaanderen
9506,Geraardsbergen,Oost-Vlaanderen
9506,Geraardsbergen,Oost-Vlaanderen
9506,Geraardsbergen,Oost-Vlaanderen
9506,Geraardsbergen,Oost-Vlaanderen
9506,Geraardsbergen,Oost-Vlaanderen
9506,Geraardsbergen,Oost-Vlaanderen
9506,Geraardsbergen,Oost-Vlaanderen
9520,Sint-Lievens-Houtem,Oost-Vlaanderen
9520,Sint-Lievens-Houtem,Oost-Vlaanderen
9520,Sint-Lievens-Houtem,Oost-Vlaanderen
9521,Sint-Lievens-Houtem,Oost-Vlaanderen
9550,Herzele,Oost-Vlaanderen
9550,Herzele,Oost-Vlaanderen
9550,Herzele,Oost-Vlaanderen
9550,Herzele,Oost-Vlaanderen
9550,Herzele,Oost-Vlaanderen
9551,Herzele,Oost-Vlaanderen
9552,Herzele,Oost-Vlaanderen
9570,Lierde,Oost-Vlaanderen
9570,Lierde,Oost-Vlaanderen
9571,Lierde,Oost-Vlaanderen
9572,Lierde,Oost-Vlaanderen
9620,Zottegem,Oost-Vlaanderen
9620,Zottegem,Oost-Vlaanderen
9620,Zottegem,Oost-Vlaanderen
9620,Zottegem,Oost-Vlaanderen
9620,Zottegem,Oost-Vlaanderen
9620,Zottegem,Oost-Vlaanderen
9620,Zottegem,Oost-Vlaanderen
9620,Zottegem,Oost-Vlaanderen
9620,Zottegem,Oost-Vlaanderen
9620,Zottegem,Oost-Vlaanderen
9630,Zwalm,Oost-Vlaanderen
9630,Zwalm,Oost-Vlaanderen
9630,Zwalm,Oost-Vlaanderen
9630,Zwalm,Oost-Vlaanderen
9630,Zwalm,Oost-Vlaanderen
9630,Zwalm,Oost-Vlaanderen
9630,Zwalm,Oost-Vlaanderen
9630,Zwalm,Oost-Vlaanderen
9630,Zwalm,Oost-Vlaanderen
9630,Zwalm,Oost-Vlaanderen
9630,Zwalm,Oost-Vlaanderen
9636,Zwalm,Oost-Vlaanderen
9660,Brakel,Oost-Vlaanderen
9660,Brakel,Oost-Vlaanderen
9660,Brakel,Oost-Vlaanderen
9660,Brakel,Oost-Vlaanderen
9660,Brakel,Oost-Vlaanderen
9660,Brakel,Oost-Vlaanderen
9661,Brakel,Oost-Vlaanderen
9667,Horebeke,Oost-Vlaanderen
9667,Horebeke,Oost-Vlaanderen
9680,Maarkedal,Oost-Vlaanderen
9680,Maarkedal,Oost-Vlaanderen
9681,Maarkedal,Oost-Vlaanderen
9688,Maarkedal,Oost-Vlaanderen
9690,Kluisbergen,Oost-Vlaanderen
9690,Kluisbergen,Oost-Vlaanderen
9690,Kluisbergen,Oost-Vlaanderen
9690,Kluisbergen,Oost-Vlaanderen
9700,Oudenaarde,Oost-Vlaanderen
9700,Oudenaarde,Oost-Vlaanderen
9700,Oudenaarde,Oost-Vlaanderen
9700,Oudenaarde,Oost-Vlaanderen
9700,Oudenaarde,Oost-Vlaanderen
9700,Oudenaarde,Oost-Vlaanderen
9700,Oudenaarde,Oost-Vlaanderen
9700,Oudenaarde,Oost-Vlaanderen
9700,Oudenaarde,Oost-Vlaanderen
9700,Oudenaarde,Oost-Vlaanderen
9700,Oudenaarde,Oost-Vlaanderen
9700,Oudenaarde,Oost-Vlaanderen
9750,Kruisem,Oost-Vlaanderen
9750,Kruisem,Oost-Vlaanderen
9771,Kruisem,Oost-Vlaanderen
9772,Kruisem,Oost-Vlaanderen
9790,Wortegem-Petegem,Oost-Vlaanderen
9790,Wortegem-Petegem,Oost-Vlaanderen
9790,Wortegem-Petegem,Oost-Vlaanderen
9790,Wortegem-Petegem,Oost-Vlaanderen
9790,Wortegem-Petegem,Oost-Vlaanderen
9800,Deinze,Oost-Vlaanderen
9800,Deinze,Oost-Vlaanderen
9800,Deinze,Oost-Vlaanderen
9800,Deinze,Oost-Vlaanderen
9800,Deinze,Oost-Vlaanderen
9800,Deinze,Oost-Vlaanderen
9800,Deinze,Oost-Vlaanderen
9800,Deinze,Oost-Vlaanderen
9800,Deinze,Oost-Vlaanderen
9800,Deinze,Oost-Vlaanderen
9810,Nazareth,Oost-Vlaanderen
9820,Merelbeke,Oost-Vlaanderen
9820,Merelbeke,Oost-Vlaanderen
9820,Merelbeke,Oost-Vlaanderen
9820,Merelbeke,Oost-Vlaanderen
9820,Merelbeke,Oost-Vlaanderen
9831,Sint-Martens-Latem,Oost-Vlaanderen
9840,De Pinte,Oost-Vlaanderen
9850,Deinze,Oost-Vlaanderen
9850,Deinze,Oost-Vlaanderen
9850,Deinze,Oost-Vlaanderen
9850,Deinze,Oost-Vlaanderen
9850,Deinze,Oost-Vlaanderen
9860,Oosterzele,Oost-Vlaanderen
9860,Oosterzele,Oost-Vlaanderen
9860,Oosterzele,Oost-Vlaanderen
9860,Oosterzele,Oost-Vlaanderen
9860,Oosterzele,Oost-Vlaanderen
9870,Zulte,Oost-Vlaanderen
9870,Zulte,Oost-Vlaanderen
9880,Aalter,Oost-Vlaanderen
9880,Aalter,Oost-Vlaanderen
9881,Aalter,Oost-Vlaanderen
9890,Gavere,Oost-Vlaanderen
9890,Gavere,Oost-Vlaanderen
9890,Gavere,Oost-Vlaanderen
9890,Gavere,Oost-Vlaanderen
9890,Gavere,Oost-Vlaanderen
9910,Aalter,Oost-Vlaanderen
9910,Aalter,Oost-Vlaanderen
9921,Lievegem,Oost-Vlaanderen
9931,Lievegem,Oost-Vlaanderen
9932,Lievegem,Oost-Vlaanderen
9940,Evergem,Oost-Vlaanderen
9940,Evergem,Oost-Vlaanderen
9940,Evergem,Oost-Vlaanderen
9961,Assenede,Oost-Vlaanderen
9968,Assenede,Oost-Vlaanderen
9968,Assenede,Oost-Vlaanderen
9971,Kaprijke,Oost-Vlaanderen
9981,Sint-Laureins,Oost-Vlaanderen
9982,Sint-Laureins,Oost-Vlaanderen
9988,Sint-Laureins,Oost-Vlaanderen
9988,Sint-Laureins,Oost-Vlaanderen
9991,Maldegem,Oost-Vlaanderen
9992,Maldegem,Oost-Vlaanderen
